{"type":"FeatureCollection","features":[{"type":"Feature","properties":{"district":"Central"},"geometry":{"type":"Polygon","coordinates":[[[77.1704,28.6664],[77.172,28.6662],[77.1735,28.6658],[77.1749,28.665],[77.1764,28.6643],[77.1779,28.664],[77.1795,28.6637],[77.181,28.6636],[77.1823,28.6626],[77.1836,28.6618],[77.1851,28.6615],[77.1866,28.662],[77.1881,28.6616],[77.1895,28.661],[77.1911,28.6613],[77.1926,28.6611],[77.1941,28.6613],[77.1956,28.6616],[77.1971,28.6621],[77.1986,28.6627],[77.2001,28.6627],[77.2017,28.6627],[77.2032,28.6626],[77.2047,28.6626],[77.2046,28.6611],[77.2035,28.66],[77.2032,28.6585],[77.2038,28.6571],[77.2042,28.6556],[77.2046,28.654],[77.2049,28.6525],[77.2052,28.651],[77.2063,28.6522],[77.2079,28.6521],[77.2098,28.6515],[77.2113,28.651],[77.2128,28.6515],[77.2136,28.653],[77.215,28.6538],[77.2165,28.6539],[77.2171,28.6524],[77.2176,28.6509],[77.2196,28.6514],[77.2207,28.6525],[77.2211,28.654],[77.222,28.6553],[77.2233,28.6543],[77.2248,28.654],[77.2263,28.6537],[77.2273,28.6525],[77.2281,28.6512],[77.2294,28.652],[77.2306,28.653],[77.232,28.6537],[77.2335,28.6536],[77.235,28.6531],[77.2365,28.6531],[77.2374,28.6518],[77.2383,28.6506],[77.2397,28.65],[77.2412,28.6502],[77.2428,28.6501],[77.2443,28.6503],[77.2457,28.651],[77.2472,28.651],[77.2487,28.6511],[77.2511,28.6511],[77.2526,28.6512],[77.2545,28.6512],[77.2564,28.6513],[77.2582,28.6513],[77.2601,28.6513],[77.2618,28.6514],[77.2634,28.6514],[77.2647,28.6505],[77.2655,28.6491],[77.266,28.6475],[77.2663,28.646],[77.2663,28.6445],[77.2652,28.6434],[77.2645,28.642],[77.2642,28.6405],[77.2632,28.6392],[77.2629,28.6375],[77.2622,28.6361],[77.2615,28.6347],[77.2609,28.6333],[77.2597,28.6324],[77.2589,28.6311],[77.2583,28.6296],[77.2591,28.6283],[77.2583,28.6269],[77.2581,28.6254],[77.2581,28.6238],[77.2577,28.6223],[77.2568,28.621],[77.2554,28.6204],[77.2539,28.62],[77.2519,28.6201],[77.2514,28.6186],[77.2503,28.6174],[77.2488,28.6171],[77.2474,28.6178],[77.2467,28.6193],[77.2461,28.6208],[77.2453,28.6222],[77.2444,28.6234],[77.2432,28.6246],[77.2418,28.6256],[77.2404,28.6264],[77.2389,28.6273],[77.2374,28.6282],[77.2361,28.629],[77.2347,28.6297],[77.2304,28.6317],[77.229,28.6324],[77.2276,28.6331],[77.2262,28.6338],[77.2247,28.6345],[77.2234,28.6354],[77.2224,28.6366],[77.2212,28.6356],[77.2197,28.6358],[77.2182,28.6354],[77.2169,28.6346],[77.2154,28.6354],[77.2141,28.6362],[77.2122,28.6373],[77.2108,28.638],[77.2092,28.639],[77.2079,28.6398],[77.2064,28.6406],[77.2051,28.6414],[77.2039,28.6424],[77.2026,28.6432],[77.2011,28.6439],[77.1997,28.6445],[77.1982,28.6452],[77.197,28.6442],[77.1964,28.6428],[77.1955,28.6416],[77.1946,28.6404],[77.1938,28.639],[77.1929,28.6378],[77.1918,28.6366],[77.1908,28.6354],[77.1897,28.6343],[77.1889,28.633],[77.1881,28.6315],[77.1873,28.6301],[77.1864,28.6288],[77.1854,28.6276],[77.1844,28.6264],[77.1831,28.6254],[77.1818,28.6246],[77.1804,28.6239],[77.1792,28.6248],[77.1779,28.6256],[77.1768,28.6268],[77.1759,28.6282],[77.1756,28.6298],[77.1753,28.6313],[77.1741,28.6323],[77.1743,28.6339],[77.1745,28.6354],[77.1746,28.637],[77.1747,28.6385],[77.1743,28.64],[77.1749,28.6414],[77.1734,28.641],[77.172,28.6418],[77.1707,28.6426],[77.1693,28.6434],[77.1679,28.644],[77.1664,28.6441],[77.165,28.6432],[77.1634,28.6437],[77.1619,28.644],[77.1604,28.6444],[77.159,28.6453],[77.1578,28.6463],[77.1565,28.6473],[77.155,28.6485],[77.1537,28.6495],[77.1522,28.6494],[77.1509,28.6484],[77.1499,28.6471],[77.1488,28.6457],[77.1474,28.6464],[77.1466,28.6477],[77.1476,28.649],[77.1485,28.6504],[77.1496,28.6517],[77.1507,28.6529],[77.1517,28.6541],[77.1539,28.6566],[77.1559,28.6589],[77.1571,28.6601],[77.1587,28.6614],[77.1603,28.6624],[77.1623,28.6632],[77.1638,28.6639],[77.1652,28.6645],[77.1667,28.6652],[77.1684,28.666],[77.17,28.6665],[77.1704,28.6664]]]}},{"type":"Feature","properties":{"district":"Dwarka"},"geometry":{"type":"Polygon","coordinates":[[[76.9507,28.6694],[76.9524,28.6695],[76.9538,28.6689],[76.9535,28.6673],[76.955,28.6665],[76.9566,28.6655],[76.9579,28.6647],[76.9594,28.6647],[76.9613,28.6647],[76.9613,28.663],[76.9625,28.6616],[76.9635,28.6604],[76.9649,28.6597],[76.9668,28.659],[76.9684,28.6586],[76.97,28.6583],[76.9717,28.6579],[76.9734,28.6573],[76.975,28.6572],[76.9768,28.6572],[76.9782,28.6565],[76.979,28.6552],[76.9805,28.6547],[76.9821,28.6547],[76.9838,28.6545],[76.9851,28.6535],[76.9863,28.6522],[76.9878,28.6521],[76.9892,28.6515],[76.9905,28.6524],[76.9926,28.6525],[76.994,28.6536],[76.9956,28.6523],[76.997,28.6513],[76.9983,28.6503],[76.9995,28.6492],[76.9996,28.6477],[76.9998,28.6462],[77.0003,28.6446],[77.0011,28.6431],[77.0015,28.6415],[77.0017,28.64],[77.0022,28.6385],[77.0028,28.6371],[77.0036,28.6356],[77.0044,28.6341],[77.0046,28.6326],[77.0049,28.631],[77.0061,28.63],[77.0064,28.6284],[77.0064,28.6267],[77.0064,28.6252],[77.0079,28.6252],[77.0097,28.6256],[77.0112,28.6259],[77.0128,28.6262],[77.0143,28.6266],[77.0157,28.6274],[77.0172,28.6276],[77.0187,28.6272],[77.0202,28.6268],[77.0224,28.6266],[77.0228,28.6281],[77.0235,28.6295],[77.0245,28.6309],[77.0254,28.6321],[77.0257,28.6336],[77.0252,28.6352],[77.0267,28.6352],[77.0287,28.6352],[77.0304,28.6352],[77.0321,28.6352],[77.0337,28.6352],[77.0354,28.635],[77.037,28.6347],[77.0387,28.634],[77.0403,28.634],[77.0425,28.634],[77.0449,28.6339],[77.0464,28.6339],[77.049,28.6339],[77.0506,28.6338],[77.0523,28.6338],[77.054,28.6338],[77.0541,28.6355],[77.0531,28.6372],[77.0528,28.6392],[77.0529,28.6416],[77.0529,28.6433],[77.0529,28.6448],[77.053,28.6463],[77.0529,28.6478],[77.0544,28.6472],[77.0556,28.646],[77.0563,28.6446],[77.0562,28.6429],[77.056,28.6414],[77.0561,28.6399],[77.057,28.6386],[77.0584,28.6379],[77.0598,28.6385],[77.0609,28.6371],[77.0618,28.6354],[77.0626,28.634],[77.0633,28.6326],[77.064,28.6312],[77.0647,28.6298],[77.0653,28.6283],[77.066,28.6269],[77.0668,28.6255],[77.0675,28.6241],[77.0682,28.6227],[77.0693,28.6215],[77.0706,28.6207],[77.0723,28.6198],[77.0737,28.6192],[77.0752,28.6185],[77.0767,28.6177],[77.0781,28.617],[77.0796,28.6164],[77.081,28.6157],[77.0825,28.6151],[77.0841,28.6143],[77.0856,28.6137],[77.0871,28.613],[77.0885,28.6124],[77.0887,28.6108],[77.0886,28.6093],[77.0872,28.6086],[77.0865,28.6071],[77.085,28.6077],[77.0832,28.6078],[77.0817,28.6072],[77.0813,28.6057],[77.0825,28.6046],[77.0827,28.603],[77.0822,28.6014],[77.0818,28.5995],[77.0814,28.5977],[77.0809,28.5962],[77.0808,28.5946],[77.0811,28.5928],[77.0796,28.5928],[77.0778,28.5933],[77.0763,28.5936],[77.075,28.5927],[77.0737,28.5919],[77.0733,28.5903],[77.0718,28.5905],[77.0717,28.5886],[77.0716,28.5869],[77.0715,28.5854],[77.0715,28.5838],[77.0738,28.5838],[77.0755,28.5837],[77.0757,28.5818],[77.0765,28.5805],[77.0775,28.5793],[77.0771,28.5777],[77.0766,28.5759],[77.0763,28.5738],[77.0759,28.5722],[77.0747,28.5708],[77.0758,28.5697],[77.0774,28.5693],[77.0774,28.5674],[77.0762,28.5661],[77.0744,28.5639],[77.0726,28.5618],[77.072,28.5603],[77.0734,28.5591],[77.075,28.5584],[77.0764,28.5576],[77.0759,28.556],[77.0755,28.5544],[77.0751,28.5529],[77.0734,28.553],[77.0718,28.5534],[77.0699,28.5538],[77.0684,28.5541],[77.0673,28.5527],[77.0668,28.5512],[77.0659,28.5499],[77.0643,28.5503],[77.0637,28.5486],[77.0621,28.5486],[77.0611,28.5474],[77.0601,28.5462],[77.0587,28.5456],[77.0576,28.5443],[77.0561,28.5425],[77.0548,28.5409],[77.0535,28.5395],[77.0519,28.5377],[77.0507,28.5363],[77.0497,28.5349],[77.048,28.5345],[77.0463,28.535],[77.0448,28.5354],[77.0431,28.5358],[77.0415,28.5366],[77.0399,28.5372],[77.0382,28.5377],[77.0365,28.5381],[77.035,28.5382],[77.0334,28.5384],[77.0315,28.5389],[77.0297,28.5393],[77.0281,28.5397],[77.0266,28.5401],[77.0251,28.5405],[77.0235,28.5409],[77.0212,28.5414],[77.0196,28.5418],[77.0179,28.5422],[77.0164,28.5425],[77.0149,28.5429],[77.0134,28.5432],[77.0118,28.5437],[77.0103,28.5436],[77.0091,28.5426],[77.0084,28.5411],[77.007,28.5403],[77.0053,28.5394],[77.0041,28.5379],[77.0033,28.5365],[77.0025,28.535],[77.0015,28.5337],[77.0013,28.5322],[77.0021,28.5309],[77.0035,28.5298],[77.005,28.5288],[77.0065,28.5281],[77.0079,28.5273],[77.0095,28.5266],[77.0107,28.5255],[77.0124,28.525],[77.014,28.5245],[77.0156,28.5233],[77.0166,28.5221],[77.0165,28.5205],[77.0149,28.5191],[77.0137,28.5181],[77.0125,28.517],[77.0111,28.5157],[77.0099,28.5147],[77.0083,28.5152],[77.0063,28.5157],[77.0046,28.5165],[77.003,28.5172],[77.0009,28.5177],[76.9994,28.5182],[76.998,28.519],[76.9964,28.519],[76.9956,28.5173],[76.994,28.5169],[76.9931,28.5157],[76.9919,28.5143],[76.9902,28.5138],[76.9888,28.5144],[76.9873,28.5152],[76.9858,28.5158],[76.9843,28.5165],[76.9827,28.5176],[76.9816,28.5187],[76.9804,28.5197],[76.9791,28.5207],[76.9776,28.5203],[76.9763,28.5188],[76.9749,28.5181],[76.9736,28.5171],[76.9723,28.5163],[76.9709,28.5155],[76.9695,28.5148],[76.968,28.514],[76.9664,28.5134],[76.965,28.5128],[76.9636,28.5118],[76.962,28.5108],[76.9606,28.5098],[76.9592,28.5087],[76.9578,28.5077],[76.9566,28.5068],[76.9553,28.5059],[76.9536,28.505],[76.9518,28.5046],[76.9503,28.5046],[76.9487,28.5045],[76.9471,28.5045],[76.9454,28.5045],[76.9438,28.5044],[76.942,28.505],[76.9405,28.5057],[76.9391,28.5066],[76.9378,28.5075],[76.9365,28.5083],[76.9351,28.5094],[76.9337,28.5101],[76.9322,28.5101],[76.9302,28.5103],[76.9286,28.5105],[76.9271,28.51],[76.9257,28.509],[76.9244,28.5082],[76.9226,28.5074],[76.9208,28.5069],[76.9197,28.5083],[76.9185,28.5092],[76.9172,28.5102],[76.9157,28.511],[76.9141,28.5116],[76.9125,28.5122],[76.9108,28.5122],[76.9092,28.5127],[76.9075,28.5132],[76.9062,28.5123],[76.905,28.5112],[76.9039,28.51],[76.9026,28.509],[76.9008,28.5096],[76.8987,28.5091],[76.8976,28.5079],[76.8963,28.5062],[76.8952,28.5047],[76.8943,28.5034],[76.8934,28.5021],[76.8921,28.5008],[76.8905,28.5009],[76.8889,28.5011],[76.8869,28.5012],[76.886,28.5025],[76.8843,28.503],[76.8826,28.5041],[76.8812,28.505],[76.8808,28.5066],[76.8812,28.5085],[76.8818,28.5099],[76.8826,28.5114],[76.8836,28.5129],[76.8844,28.5146],[76.885,28.5162],[76.886,28.5181],[76.8869,28.5195],[76.886,28.5208],[76.8845,28.5213],[76.8829,28.522],[76.8811,28.5228],[76.8797,28.5236],[76.8781,28.5244],[76.8766,28.5254],[76.8757,28.5267],[76.8748,28.528],[76.8737,28.5293],[76.8731,28.5308],[76.8731,28.5324],[76.8718,28.5332],[76.8703,28.5339],[76.8689,28.5346],[76.8679,28.5358],[76.8671,28.5379],[76.8665,28.5398],[76.8658,28.5418],[76.8649,28.5433],[76.8634,28.5442],[76.8613,28.5454],[76.8598,28.5459],[76.8576,28.5466],[76.8553,28.5472],[76.853,28.5478],[76.8515,28.5483],[76.849,28.5488],[76.847,28.5493],[76.8455,28.5502],[76.8451,28.552],[76.8442,28.5534],[76.8432,28.5548],[76.8423,28.5562],[76.8421,28.5577],[76.8419,28.5595],[76.8419,28.5611],[76.8423,28.5626],[76.8418,28.5642],[76.8413,28.566],[76.8409,28.5676],[76.8403,28.5693],[76.8402,28.5709],[76.8393,28.5724],[76.8389,28.5741],[76.8391,28.5759],[76.839,28.5775],[76.8391,28.5791],[76.8392,28.5807],[76.8394,28.5823],[76.841,28.5828],[76.8426,28.5835],[76.8441,28.5841],[76.8456,28.5846],[76.8471,28.5847],[76.8489,28.5848],[76.8507,28.585],[76.8523,28.5852],[76.8541,28.5853],[76.8562,28.5852],[76.8577,28.5851],[76.8595,28.585],[76.861,28.585],[76.8628,28.5853],[76.8645,28.5855],[76.8651,28.5872],[76.8661,28.5884],[76.8675,28.59],[76.8682,28.5914],[76.8688,28.5931],[76.8694,28.5948],[76.8699,28.5963],[76.8703,28.598],[76.8707,28.5998],[76.8712,28.6014],[76.8719,28.603],[76.8733,28.6041],[76.8745,28.6052],[76.8757,28.6063],[76.8768,28.6076],[76.8778,28.6088],[76.8787,28.6107],[76.8795,28.6123],[76.8803,28.6142],[76.8809,28.6157],[76.8814,28.6172],[76.8818,28.6187],[76.8826,28.62],[76.8832,28.6217],[76.884,28.623],[76.884,28.6246],[76.8843,28.6262],[76.8849,28.6276],[76.8857,28.629],[76.8866,28.6306],[76.888,28.6315],[76.8895,28.632],[76.8912,28.6317],[76.8929,28.6315],[76.8945,28.6309],[76.8958,28.6301],[76.8973,28.6291],[76.8986,28.6281],[76.9,28.6271],[76.9015,28.6263],[76.903,28.6257],[76.9044,28.625],[76.9057,28.6241],[76.9072,28.6247],[76.908,28.6261],[76.909,28.6274],[76.9102,28.6286],[76.9113,28.6297],[76.9132,28.6313],[76.9145,28.6321],[76.9163,28.6318],[76.918,28.6317],[76.9196,28.6314],[76.9211,28.6306],[76.9223,28.6296],[76.9234,28.6285],[76.9245,28.6273],[76.9255,28.626],[76.9264,28.6248],[76.9276,28.6234],[76.929,28.6224],[76.9304,28.6214],[76.9317,28.6206],[76.9329,28.6196],[76.9343,28.6188],[76.9358,28.6194],[76.9368,28.6207],[76.9378,28.6219],[76.939,28.6229],[76.9401,28.6242],[76.9412,28.6256],[76.9423,28.6269],[76.9429,28.6286],[76.9435,28.6307],[76.9444,28.6331],[76.9427,28.6337],[76.9411,28.6344],[76.9397,28.6352],[76.9382,28.6361],[76.937,28.6372],[76.9357,28.6383],[76.9344,28.6396],[76.9333,28.6407],[76.9318,28.6418],[76.9307,28.6432],[76.9299,28.6445],[76.9286,28.6457],[76.9277,28.6471],[76.9264,28.6482],[76.9251,28.6492],[76.9255,28.6509],[76.9266,28.6525],[76.9275,28.6539],[76.9284,28.6552],[76.9291,28.6566],[76.9302,28.6579],[76.9311,28.6592],[76.9318,28.6608],[76.9326,28.6622],[76.933,28.6637],[76.9332,28.6652],[76.9342,28.6666],[76.9354,28.6676],[76.937,28.6678],[76.9386,28.668],[76.9403,28.6681],[76.9418,28.6682],[76.9435,28.6686],[76.945,28.6693],[76.9465,28.6695],[76.9482,28.6699],[76.9498,28.6697],[76.9507,28.6694]]]}},{"type":"Feature","properties":{"district":"East"},"geometry":{"type":"Polygon","coordinates":[[[77.2727,28.593],[77.2711,28.5945],[77.2699,28.596],[77.2686,28.5973],[77.2677,28.5986],[77.2664,28.6001],[77.2654,28.6014],[77.2631,28.6013],[77.262,28.6024],[77.2611,28.6036],[77.2603,28.6049],[77.2595,28.6063],[77.2588,28.6079],[77.2583,28.6095],[77.2578,28.6112],[77.2573,28.6127],[77.2569,28.6144],[77.2565,28.6159],[77.2563,28.6177],[77.2556,28.6194],[77.2562,28.6209],[77.2574,28.6219],[77.2581,28.6233],[77.2581,28.6248],[77.2583,28.6263],[77.2589,28.6278],[77.2583,28.6292],[77.2587,28.6307],[77.2598,28.6325],[77.261,28.6335],[77.2616,28.6349],[77.2624,28.6363],[77.263,28.6379],[77.2632,28.6394],[77.2643,28.6407],[77.2645,28.6422],[77.266,28.6431],[77.2678,28.6434],[77.2694,28.6435],[77.2709,28.6433],[77.2726,28.6429],[77.2742,28.643],[77.2759,28.6431],[77.2776,28.6432],[77.2792,28.6433],[77.2809,28.6434],[77.2825,28.6433],[77.2842,28.6434],[77.2857,28.6435],[77.2875,28.6436],[77.2893,28.6436],[77.2908,28.6437],[77.2929,28.6438],[77.2947,28.6439],[77.2965,28.6441],[77.2981,28.6441],[77.2996,28.6434],[77.3006,28.6422],[77.3017,28.641],[77.3039,28.6399],[77.3053,28.6409],[77.3068,28.6414],[77.3082,28.6427],[77.3091,28.6442],[77.3104,28.6455],[77.3118,28.6464],[77.3131,28.6472],[77.3167,28.6491],[77.3176,28.6507],[77.3185,28.652],[77.3194,28.6533],[77.3207,28.6541],[77.3204,28.6519],[77.3196,28.65],[77.319,28.6485],[77.3181,28.6468],[77.3175,28.6449],[77.3168,28.6429],[77.3161,28.6414],[77.3178,28.64],[77.3191,28.6392],[77.3205,28.6382],[77.3218,28.6369],[77.3236,28.6356],[77.325,28.6342],[77.3266,28.633],[77.3286,28.6324],[77.3301,28.6317],[77.3315,28.6309],[77.3326,28.6297],[77.3339,28.6288],[77.3347,28.6275],[77.3361,28.6265],[77.3376,28.6257],[77.3389,28.6248],[77.3402,28.6238],[77.3402,28.6223],[77.3413,28.6211],[77.3419,28.6196],[77.3419,28.6181],[77.3418,28.6166],[77.3416,28.6147],[77.3418,28.613],[77.342,28.6112],[77.3419,28.6094],[77.3417,28.6072],[77.3412,28.6052],[77.3399,28.6043],[77.3387,28.603],[77.3373,28.602],[77.3357,28.6016],[77.3342,28.6017],[77.3327,28.6013],[77.3311,28.6009],[77.3296,28.6004],[77.3281,28.6],[77.3265,28.5993],[77.3256,28.5981],[77.3241,28.5978],[77.3226,28.5975],[77.3211,28.5977],[77.3196,28.5975],[77.3181,28.5971],[77.3165,28.5969],[77.315,28.597],[77.3134,28.5965],[77.3126,28.5952],[77.3119,28.5937],[77.3111,28.5924],[77.3104,28.591],[77.3093,28.5897],[77.3081,28.5886],[77.3069,28.5876],[77.3056,28.5866],[77.3044,28.5856],[77.3031,28.5843],[77.3019,28.5833],[77.3011,28.582],[77.2998,28.5809],[77.2983,28.5818],[77.2973,28.5831],[77.2957,28.5839],[77.2947,28.5853],[77.2934,28.5863],[77.2919,28.5865],[77.2906,28.5857],[77.2893,28.5849],[77.2877,28.585],[77.2862,28.5846],[77.2847,28.5854],[77.2835,28.5864],[77.2821,28.5871],[77.2806,28.5879],[77.2792,28.5889],[77.2778,28.5899],[77.2765,28.5907],[77.275,28.5915],[77.2737,28.5923],[77.2727,28.593]]]}},{"type":"Feature","properties":{"district":"New Delhi"},"geometry":{"type":"Polygon","coordinates":[[[77.1982,28.6452],[77.1996,28.6446],[77.2014,28.6438],[77.2028,28.6432],[77.2042,28.642],[77.2055,28.6411],[77.2073,28.6401],[77.209,28.6391],[77.2105,28.6382],[77.2119,28.6374],[77.2135,28.6365],[77.2149,28.6357],[77.2164,28.6349],[77.218,28.6354],[77.2195,28.6358],[77.221,28.6357],[77.2222,28.6367],[77.2232,28.6353],[77.2244,28.6343],[77.2259,28.6335],[77.2273,28.6329],[77.2287,28.6323],[77.2302,28.6316],[77.2316,28.6309],[77.2333,28.6301],[77.2348,28.6294],[77.2362,28.6285],[77.2381,28.6274],[77.2396,28.6266],[77.2412,28.6257],[77.2428,28.6247],[77.2439,28.6236],[77.2449,28.6222],[77.2458,28.6207],[77.2464,28.6189],[77.2476,28.6176],[77.2491,28.6171],[77.2507,28.6177],[77.2516,28.6192],[77.2533,28.6199],[77.2549,28.62],[77.256,28.6187],[77.2565,28.6172],[77.2566,28.6155],[77.257,28.614],[77.2574,28.6123],[77.2581,28.6106],[77.2572,28.6092],[77.2554,28.6091],[77.2539,28.609],[77.2523,28.6089],[77.2498,28.6085],[77.2483,28.6086],[77.2469,28.6078],[77.2456,28.607],[77.2441,28.6067],[77.2428,28.6081],[77.2413,28.6083],[77.24,28.6074],[77.2401,28.6057],[77.2403,28.604],[77.2404,28.6024],[77.2406,28.6003],[77.2407,28.5978],[77.2404,28.5962],[77.2401,28.5946],[77.2397,28.5931],[77.2382,28.5927],[77.2366,28.5925],[77.235,28.5923],[77.2333,28.5921],[77.2313,28.5918],[77.2296,28.5914],[77.228,28.5911],[77.2263,28.5909],[77.2246,28.5907],[77.223,28.5906],[77.221,28.5904],[77.2193,28.5902],[77.2175,28.59],[77.216,28.5899],[77.2144,28.5897],[77.2129,28.5896],[77.2125,28.5879],[77.211,28.5879],[77.2095,28.5878],[77.208,28.5876],[77.2064,28.5872],[77.2049,28.5871],[77.2033,28.5873],[77.202,28.5881],[77.2006,28.5889],[77.1993,28.588],[77.1995,28.5865],[77.2001,28.5846],[77.2006,28.5831],[77.2011,28.5814],[77.1993,28.581],[77.1973,28.5812],[77.1958,28.5813],[77.1931,28.5815],[77.1915,28.5818],[77.1899,28.582],[77.1884,28.5823],[77.1867,28.5828],[77.1849,28.5835],[77.1834,28.5837],[77.1817,28.5844],[77.1797,28.5851],[77.1783,28.5857],[77.1767,28.5864],[77.1753,28.5871],[77.1742,28.5882],[77.1732,28.5896],[77.1722,28.591],[77.1713,28.5924],[77.1702,28.5939],[77.1689,28.5953],[77.167,28.5967],[77.1669,28.5983],[77.1684,28.5978],[77.1695,28.5989],[77.1703,28.6003],[77.1708,28.6018],[77.1697,28.6029],[77.1701,28.6047],[77.1708,28.6061],[77.1713,28.6076],[77.1724,28.609],[77.1734,28.6102],[77.1744,28.6114],[77.1747,28.613],[77.1748,28.6146],[77.1756,28.616],[77.1762,28.6174],[77.1763,28.6189],[77.177,28.6203],[77.1781,28.6216],[77.1793,28.6228],[77.1806,28.6238],[77.1819,28.6246],[77.1834,28.6257],[77.1847,28.6268],[77.1859,28.6282],[77.1868,28.6294],[77.1877,28.6308],[77.1885,28.6323],[77.1891,28.6337],[77.1902,28.6348],[77.1913,28.636],[77.1925,28.6373],[77.1936,28.6385],[77.1944,28.6401],[77.1955,28.6416],[77.1965,28.6428],[77.1971,28.6445],[77.1982,28.6452]],[[77.2314,28.6256],[77.2314,28.6256],[77.2314,28.6256],[77.2314,28.6256]]]}},{"type":"Feature","properties":{"district":"North"},"geometry":{"type":"Polygon","coordinates":[[[77.2181,28.7855],[77.2196,28.7859],[77.2212,28.786],[77.2227,28.7861],[77.2244,28.7862],[77.226,28.7864],[77.2277,28.7865],[77.2292,28.7862],[77.2307,28.7857],[77.232,28.7849],[77.2314,28.7835],[77.2311,28.782],[77.2295,28.7818],[77.2281,28.781],[77.2293,28.78],[77.2309,28.7795],[77.2321,28.7784],[77.2334,28.7775],[77.2348,28.7768],[77.2361,28.776],[77.2374,28.7752],[77.2382,28.7735],[77.2385,28.7718],[77.239,28.7703],[77.2392,28.7688],[77.239,28.7673],[77.2385,28.7658],[77.2377,28.7645],[77.237,28.7631],[77.2361,28.7615],[77.2355,28.76],[77.2352,28.7584],[77.2365,28.7574],[77.238,28.7569],[77.237,28.7555],[77.2355,28.755],[77.2344,28.7539],[77.2336,28.7526],[77.233,28.7511],[77.2326,28.7495],[77.2324,28.748],[77.2321,28.7464],[77.2324,28.7449],[77.2326,28.7433],[77.2331,28.7418],[77.2338,28.7404],[77.2346,28.739],[77.2354,28.7376],[77.2362,28.7362],[77.2374,28.7352],[77.2385,28.7341],[77.2396,28.733],[77.2405,28.7317],[77.2414,28.7302],[77.242,28.7288],[77.2428,28.7275],[77.2437,28.7262],[77.2436,28.7247],[77.2428,28.7234],[77.2425,28.7219],[77.2421,28.7203],[77.2411,28.7191],[77.2402,28.7178],[77.2391,28.7167],[77.2382,28.7154],[77.2371,28.7142],[77.2359,28.7132],[77.236,28.7117],[77.2357,28.7102],[77.2354,28.7087],[77.2347,28.7073],[77.2342,28.7057],[77.2332,28.7045],[77.2323,28.7033],[77.2319,28.7017],[77.2318,28.7002],[77.2316,28.6985],[77.2316,28.6969],[77.2315,28.6954],[77.2317,28.6939],[77.2319,28.6924],[77.2318,28.6909],[77.2317,28.6894],[77.2321,28.6878],[77.2329,28.6865],[77.2331,28.685],[77.2336,28.6835],[77.2338,28.6819],[77.2338,28.6804],[77.2337,28.6789],[77.2346,28.6776],[77.2357,28.6765],[77.2365,28.6752],[77.2368,28.6737],[77.237,28.6722],[77.2368,28.6706],[77.2371,28.6691],[77.2384,28.668],[77.2397,28.6667],[77.2412,28.6658],[77.2427,28.6652],[77.2442,28.6647],[77.2458,28.6643],[77.2474,28.6639],[77.2499,28.663],[77.2514,28.6625],[77.2529,28.6624],[77.2544,28.662],[77.2557,28.6611],[77.2572,28.6606],[77.2586,28.6598],[77.2595,28.6586],[77.2606,28.6575],[77.2613,28.6561],[77.2623,28.6547],[77.263,28.6533],[77.2637,28.6519],[77.262,28.6514],[77.2604,28.6513],[77.2587,28.6513],[77.2572,28.6513],[77.2554,28.6512],[77.2534,28.6512],[77.2518,28.6512],[77.2499,28.6511],[77.248,28.6511],[77.2465,28.651],[77.245,28.6505],[77.2435,28.6501],[77.2418,28.6502],[77.2402,28.6501],[77.2385,28.6503],[77.2375,28.6517],[77.2365,28.6529],[77.235,28.6531],[77.2335,28.6536],[77.232,28.6536],[77.2306,28.653],[77.2296,28.6518],[77.2282,28.6512],[77.2273,28.6525],[77.2263,28.6537],[77.2248,28.6539],[77.2233,28.6542],[77.2221,28.6552],[77.2211,28.654],[77.2207,28.6525],[77.2196,28.6514],[77.2181,28.6508],[77.2172,28.6521],[77.2169,28.6537],[77.2153,28.6539],[77.2139,28.6533],[77.213,28.652],[77.2118,28.651],[77.2102,28.6513],[77.2087,28.6519],[77.2072,28.6523],[77.2057,28.6514],[77.2049,28.6527],[77.2045,28.6543],[77.2041,28.6558],[77.2038,28.6573],[77.2032,28.6587],[77.2036,28.6602],[77.2048,28.6613],[77.2038,28.6626],[77.2023,28.6627],[77.2005,28.6627],[77.1989,28.6627],[77.197,28.6621],[77.1955,28.6616],[77.194,28.6613],[77.1923,28.6611],[77.1907,28.6613],[77.1892,28.6611],[77.1877,28.6617],[77.1862,28.6621],[77.1848,28.6614],[77.1833,28.6619],[77.182,28.6629],[77.1807,28.6637],[77.1792,28.6638],[77.1776,28.664],[77.1761,28.6644],[77.1747,28.6651],[77.1733,28.6659],[77.1717,28.6662],[77.1702,28.6664],[77.1688,28.6671],[77.1674,28.6677],[77.1657,28.6684],[77.1639,28.6693],[77.1621,28.67],[77.1607,28.6706],[77.159,28.671],[77.1596,28.6725],[77.1611,28.673],[77.1629,28.6734],[77.1645,28.674],[77.166,28.6748],[77.1673,28.6757],[77.1686,28.6766],[77.1701,28.6769],[77.1716,28.6774],[77.1731,28.6777],[77.1751,28.678],[77.1768,28.6784],[77.1787,28.679],[77.1802,28.6795],[77.1817,28.6798],[77.1832,28.6802],[77.1847,28.6808],[77.1863,28.6813],[77.1879,28.6818],[77.1894,28.6823],[77.1909,28.6826],[77.1925,28.6832],[77.1944,28.6838],[77.1959,28.6843],[77.1973,28.6851],[77.1985,28.6861],[77.1998,28.6873],[77.2012,28.6886],[77.2027,28.6893],[77.2041,28.6906],[77.2054,28.6917],[77.2065,28.6928],[77.2075,28.6943],[77.2084,28.6956],[77.2092,28.6969],[77.2098,28.6984],[77.2107,28.6998],[77.2117,28.701],[77.2129,28.7019],[77.214,28.703],[77.2148,28.7044],[77.2157,28.706],[77.2169,28.7072],[77.2177,28.7085],[77.2179,28.7101],[77.2186,28.7116],[77.2192,28.713],[77.2201,28.7142],[77.2209,28.7155],[77.2198,28.717],[77.2182,28.7171],[77.2167,28.7166],[77.2153,28.7159],[77.2137,28.7156],[77.2122,28.7154],[77.2106,28.7156],[77.2093,28.7167],[77.2079,28.7181],[77.2063,28.7184],[77.2046,28.7181],[77.2028,28.7182],[77.2017,28.7196],[77.2006,28.7208],[77.1998,28.7221],[77.1996,28.7238],[77.1983,28.7253],[77.198,28.727],[77.1981,28.7285],[77.1963,28.7289],[77.1947,28.7293],[77.1924,28.7298],[77.1908,28.7302],[77.1914,28.7316],[77.1918,28.7332],[77.1919,28.7347],[77.1916,28.7364],[77.192,28.7379],[77.191,28.7391],[77.1898,28.7401],[77.1894,28.7416],[77.1894,28.7431],[77.188,28.7441],[77.1865,28.744],[77.185,28.7443],[77.1841,28.7455],[77.1839,28.747],[77.1834,28.7485],[77.1824,28.7498],[77.1826,28.7513],[77.1828,28.7528],[77.1822,28.7542],[77.1808,28.755],[77.1791,28.7551],[77.1792,28.7567],[77.1804,28.7578],[77.1819,28.758],[77.1834,28.7581],[77.185,28.7583],[77.1856,28.7598],[77.1852,28.7614],[77.1846,28.7628],[77.1838,28.7643],[77.183,28.7657],[77.182,28.7671],[77.1812,28.7684],[77.1802,28.7696],[77.1796,28.771],[77.1794,28.7725],[77.1794,28.7741],[77.1795,28.7756],[77.1796,28.7771],[77.1797,28.7786],[77.1798,28.7801],[77.1799,28.7817],[77.18,28.7833],[77.1802,28.7848],[77.1822,28.7858],[77.1844,28.7862],[77.1864,28.7863],[77.1879,28.7862],[77.1894,28.7862],[77.1912,28.7862],[77.1932,28.7861],[77.1948,28.7862],[77.1966,28.7848],[77.1979,28.7838],[77.1992,28.7826],[77.2013,28.7803],[77.2024,28.7814],[77.2038,28.7824],[77.2053,28.7826],[77.207,28.7832],[77.2084,28.7838],[77.2099,28.7845],[77.2114,28.7852],[77.213,28.786],[77.2145,28.787],[77.216,28.7866],[77.2174,28.7857],[77.2181,28.7855]]]}},{"type":"Feature","properties":{"district":"North-East"},"geometry":{"type":"Polygon","coordinates":[[[77.2359,28.7608],[77.2374,28.7602],[77.2388,28.7595],[77.2405,28.7588],[77.2424,28.7579],[77.2438,28.7573],[77.2453,28.7567],[77.2467,28.7561],[77.2483,28.7556],[77.2498,28.7553],[77.2513,28.7554],[77.2528,28.7556],[77.2544,28.7558],[77.2559,28.756],[77.2572,28.7549],[77.2564,28.7536],[77.2578,28.753],[77.2587,28.7518],[77.2588,28.7503],[77.2587,28.7488],[77.2581,28.7472],[77.2574,28.7458],[77.2566,28.7445],[77.2551,28.7439],[77.2551,28.7424],[77.2552,28.7409],[77.2557,28.7393],[77.2568,28.7382],[77.2579,28.7371],[77.259,28.736],[77.2604,28.7352],[77.2618,28.7345],[77.2633,28.7346],[77.2648,28.7344],[77.2664,28.7346],[77.2679,28.7347],[77.2694,28.7351],[77.2709,28.7353],[77.2724,28.7357],[77.2738,28.7364],[77.2753,28.7362],[77.2767,28.7355],[77.278,28.7347],[77.2793,28.7339],[77.2803,28.7326],[77.2812,28.7312],[77.2823,28.73],[77.2834,28.7288],[77.2845,28.7277],[77.2856,28.7265],[77.2865,28.7253],[77.2877,28.7243],[77.2891,28.7235],[77.2906,28.7229],[77.2903,28.7214],[77.2895,28.7201],[77.2896,28.7184],[77.2897,28.7168],[77.2886,28.7157],[77.2884,28.7142],[77.2888,28.7127],[77.2873,28.7122],[77.2878,28.7106],[77.2888,28.7094],[77.2896,28.7081],[77.2905,28.7069],[77.292,28.7062],[77.2935,28.7059],[77.2949,28.7052],[77.2964,28.7051],[77.2977,28.706],[77.2985,28.7074],[77.2989,28.7089],[77.2999,28.7102],[77.3014,28.7106],[77.3028,28.7113],[77.3042,28.7124],[77.3053,28.7135],[77.3068,28.7138],[77.3083,28.7135],[77.3098,28.7136],[77.3113,28.7134],[77.3128,28.713],[77.3139,28.7142],[77.3152,28.715],[77.3166,28.7139],[77.3181,28.7139],[77.3196,28.7133],[77.3211,28.7129],[77.3226,28.7133],[77.3241,28.7129],[77.3257,28.713],[77.3273,28.7134],[77.3289,28.7131],[77.3305,28.7129],[77.3292,28.712],[77.3278,28.7111],[77.3266,28.7101],[77.3255,28.7088],[77.3248,28.7074],[77.3246,28.7059],[77.3255,28.7047],[77.3259,28.7031],[77.3255,28.7016],[77.3247,28.7002],[77.3237,28.699],[77.3241,28.6975],[77.3249,28.6962],[77.326,28.6951],[77.3271,28.6939],[77.3265,28.6925],[77.3252,28.6915],[77.3239,28.6905],[77.3227,28.6895],[77.3215,28.6884],[77.3201,28.6878],[77.3188,28.6888],[77.3179,28.6901],[77.317,28.6914],[77.316,28.6926],[77.3151,28.6938],[77.3135,28.6932],[77.3122,28.6924],[77.3108,28.6915],[77.3095,28.6907],[77.3082,28.6899],[77.3067,28.6898],[77.3051,28.6897],[77.3036,28.6896],[77.3021,28.6895],[77.3006,28.6896],[77.2997,28.6908],[77.2982,28.6914],[77.2967,28.6919],[77.2952,28.6918],[77.2948,28.6903],[77.2935,28.6895],[77.292,28.6892],[77.2904,28.6892],[77.2889,28.6892],[77.288,28.6878],[77.2883,28.6863],[77.2868,28.6861],[77.2853,28.686],[77.2838,28.6855],[77.2832,28.6841],[77.2843,28.683],[77.2847,28.6815],[77.2833,28.6809],[77.2818,28.681],[77.2803,28.6812],[77.2797,28.6798],[77.2795,28.6783],[77.2793,28.6768],[77.2799,28.6754],[77.2803,28.6739],[77.2805,28.6724],[77.2789,28.6717],[77.2771,28.6714],[77.2756,28.6712],[77.2731,28.6709],[77.2712,28.6706],[77.2696,28.6704],[77.2679,28.6709],[77.2663,28.6707],[77.2646,28.6701],[77.2633,28.6693],[77.2616,28.6686],[77.2593,28.6679],[77.2577,28.6674],[77.2561,28.6667],[77.2544,28.666],[77.2529,28.6654],[77.2513,28.6648],[77.2486,28.6637],[77.2459,28.6642],[77.2443,28.6647],[77.2419,28.6655],[77.2404,28.6662],[77.2385,28.6679],[77.2373,28.669],[77.2364,28.6702],[77.2369,28.6719],[77.2368,28.6734],[77.2365,28.6751],[77.2357,28.6766],[77.2345,28.6777],[77.2336,28.679],[77.2338,28.6805],[77.2338,28.6823],[77.2335,28.6838],[77.2331,28.6856],[77.2328,28.6871],[77.2319,28.6885],[77.2316,28.69],[77.2319,28.6915],[77.2318,28.6931],[77.2316,28.6946],[77.2315,28.6961],[77.2316,28.6976],[77.2317,28.6992],[77.2318,28.7008],[77.232,28.7025],[77.2325,28.704],[77.2337,28.705],[77.2346,28.7063],[77.2351,28.7078],[77.2356,28.7093],[77.2359,28.7108],[77.2362,28.7124],[77.2367,28.7139],[77.2379,28.715],[77.2388,28.7162],[77.2397,28.7174],[77.2408,28.7185],[77.2416,28.7198],[77.2424,28.7211],[77.243,28.7225],[77.2429,28.724],[77.2436,28.7254],[77.2433,28.7269],[77.2427,28.7283],[77.2417,28.7295],[77.2411,28.7309],[77.2402,28.7321],[77.2393,28.7333],[77.2382,28.7344],[77.2371,28.7355],[77.236,28.7366],[77.2352,28.7379],[77.2344,28.7393],[77.2336,28.7407],[77.233,28.7421],[77.2326,28.7436],[77.2324,28.7451],[77.2321,28.7466],[77.2324,28.7481],[77.2326,28.7497],[77.2331,28.7512],[77.2337,28.7527],[77.2346,28.7539],[77.2357,28.7552],[77.2373,28.7556],[77.2379,28.757],[77.2364,28.7575],[77.2352,28.7585],[77.2355,28.76],[77.2359,28.7608]],[[77.2493,28.7554],[77.2492,28.7554],[77.2493,28.7554],[77.2493,28.7554]]]}},{"type":"Feature","properties":{"district":"North-West"},"geometry":{"type":"Polygon","coordinates":[[[77.1908,28.7302],[77.1932,28.7296],[77.1958,28.729],[77.1977,28.7285],[77.198,28.7268],[77.1983,28.7253],[77.1994,28.7241],[77.1998,28.7226],[77.2006,28.7208],[77.2017,28.7196],[77.2026,28.7184],[77.2042,28.718],[77.2059,28.7183],[77.2074,28.7183],[77.2087,28.7174],[77.2098,28.7161],[77.2112,28.7154],[77.2128,28.7155],[77.2145,28.7157],[77.2161,28.7162],[77.2176,28.7169],[77.2191,28.7173],[77.2205,28.7167],[77.2207,28.7152],[77.2199,28.7139],[77.2191,28.7126],[77.2181,28.7106],[77.2178,28.7088],[77.2169,28.7072],[77.2155,28.7057],[77.2147,28.7043],[77.2139,28.703],[77.2128,28.7018],[77.2115,28.7008],[77.2106,28.6996],[77.2096,28.6982],[77.2091,28.6967],[77.2082,28.6953],[77.2073,28.6939],[77.2064,28.6926],[77.2052,28.6916],[77.2038,28.6903],[77.2026,28.6892],[77.2011,28.6885],[77.1999,28.6874],[77.1987,28.6863],[77.1974,28.6852],[77.1961,28.6843],[77.1946,28.6838],[77.1931,28.6834],[77.1913,28.6828],[77.1898,28.6824],[77.1882,28.6819],[77.1866,28.6814],[77.1851,28.681],[77.1836,28.6804],[77.182,28.6799],[77.1805,28.6794],[77.1789,28.679],[77.1773,28.6786],[77.1758,28.6781],[77.1742,28.6778],[77.1727,28.6777],[77.1712,28.6773],[77.1697,28.6768],[77.1681,28.6765],[77.1669,28.6755],[77.1656,28.6746],[77.1641,28.6738],[77.1626,28.6733],[77.1611,28.673],[77.1596,28.6725],[77.1544,28.6743],[77.1528,28.6749],[77.15,28.676],[77.1482,28.6768],[77.1461,28.6776],[77.1444,28.6782],[77.1424,28.6787],[77.1406,28.6792],[77.1389,28.6795],[77.1373,28.6797],[77.1356,28.6799],[77.135,28.6813],[77.1359,28.6828],[77.136,28.6855],[77.1354,28.6869],[77.1353,28.6884],[77.1354,28.6899],[77.1353,28.6915],[77.1349,28.6931],[77.1346,28.6947],[77.1341,28.6964],[77.1338,28.698],[77.1345,28.6994],[77.1356,28.7006],[77.1343,28.7018],[77.133,28.7027],[77.1317,28.7036],[77.1319,28.7051],[77.1329,28.7063],[77.1341,28.7075],[77.1351,28.7087],[77.1361,28.7099],[77.1371,28.7111],[77.1381,28.7125],[77.1387,28.714],[77.1392,28.7155],[77.1395,28.717],[77.1398,28.7185],[77.1401,28.72],[77.1404,28.7216],[77.1412,28.7233],[77.142,28.7248],[77.143,28.7261],[77.1442,28.7272],[77.1455,28.7282],[77.1468,28.7291],[77.1482,28.73],[77.15,28.7312],[77.1515,28.7322],[77.1529,28.7331],[77.1544,28.7341],[77.1557,28.7349],[77.1572,28.7357],[77.1587,28.7365],[77.1601,28.7371],[77.1615,28.7377],[77.1635,28.7379],[77.165,28.7379],[77.1666,28.7378],[77.1681,28.7375],[77.1702,28.7368],[77.172,28.7362],[77.1734,28.7356],[77.1752,28.735],[77.1767,28.7344],[77.1785,28.7338],[77.1803,28.7332],[77.1818,28.7327],[77.1834,28.7323],[77.1853,28.7318],[77.1873,28.7313],[77.1895,28.7308],[77.1908,28.7302]]]}},{"type":"Feature","properties":{"district":"Outer"},"geometry":{"type":"Polygon","coordinates":[[[77.0764,28.7145],[77.0778,28.7139],[77.0793,28.7133],[77.0807,28.7123],[77.0809,28.7106],[77.0817,28.7091],[77.0828,28.7079],[77.084,28.7068],[77.0853,28.7057],[77.0868,28.7045],[77.0882,28.7037],[77.0895,28.7029],[77.0909,28.702],[77.0922,28.701],[77.0937,28.7004],[77.0952,28.6996],[77.0966,28.6988],[77.0979,28.698],[77.0993,28.6969],[77.1007,28.6959],[77.1026,28.6952],[77.1042,28.6948],[77.1057,28.6944],[77.1072,28.6949],[77.1088,28.6954],[77.1105,28.6959],[77.112,28.6963],[77.1137,28.6967],[77.1152,28.6971],[77.1167,28.6975],[77.1182,28.6979],[77.1197,28.6984],[77.1213,28.6988],[77.1228,28.6993],[77.1243,28.6999],[77.1257,28.7006],[77.1271,28.7014],[77.1285,28.7022],[77.1298,28.703],[77.1309,28.7041],[77.1322,28.7033],[77.1335,28.7024],[77.1354,28.7011],[77.1347,28.6996],[77.1337,28.6984],[77.134,28.6969],[77.1344,28.6954],[77.1348,28.6936],[77.1353,28.6916],[77.1354,28.6898],[77.1353,28.6879],[77.136,28.6865],[77.1359,28.685],[77.1359,28.6835],[77.1355,28.682],[77.1347,28.6805],[77.133,28.6804],[77.1315,28.6805],[77.13,28.6807],[77.1285,28.681],[77.1266,28.6814],[77.125,28.6818],[77.1234,28.6821],[77.1216,28.6822],[77.1212,28.6837],[77.1211,28.6852],[77.1203,28.6866],[77.1184,28.6869],[77.1168,28.6872],[77.1151,28.6874],[77.1135,28.6876],[77.112,28.6878],[77.1104,28.688],[77.1086,28.688],[77.1069,28.688],[77.1052,28.6881],[77.1037,28.6882],[77.1028,28.6869],[77.1027,28.6852],[77.1023,28.6836],[77.1035,28.6825],[77.1053,28.6824],[77.1069,28.6822],[77.1088,28.6821],[77.1094,28.6806],[77.1113,28.6801],[77.1108,28.6785],[77.112,28.6775],[77.1137,28.6772],[77.1135,28.6754],[77.1131,28.6732],[77.1128,28.6711],[77.1122,28.668],[77.1118,28.6657],[77.1108,28.664],[77.1098,28.6625],[77.1088,28.6613],[77.1076,28.6602],[77.1061,28.6604],[77.1045,28.6605],[77.1027,28.6606],[77.1011,28.6604],[77.0994,28.6602],[77.0979,28.6592],[77.0966,28.6583],[77.0953,28.6571],[77.0942,28.6559],[77.0929,28.655],[77.0914,28.6543],[77.0896,28.6539],[77.0881,28.6542],[77.0866,28.6547],[77.085,28.6552],[77.0835,28.6555],[77.082,28.6554],[77.0805,28.6549],[77.079,28.6544],[77.0776,28.6537],[77.0763,28.6529],[77.0753,28.6517],[77.0742,28.6506],[77.0729,28.6494],[77.0716,28.6483],[77.0704,28.6472],[77.0692,28.6462],[77.068,28.6452],[77.0666,28.6439],[77.0652,28.6428],[77.064,28.6417],[77.0627,28.6406],[77.061,28.6395],[77.0597,28.6385],[77.0583,28.6379],[77.0569,28.6387],[77.056,28.64],[77.056,28.6415],[77.0562,28.643],[77.0563,28.6445],[77.0556,28.646],[77.0544,28.6472],[77.0532,28.6483],[77.053,28.6468],[77.053,28.6453],[77.0529,28.6438],[77.0529,28.6423],[77.0529,28.64],[77.0528,28.6385],[77.0533,28.6368],[77.0541,28.6355],[77.054,28.6339],[77.0517,28.6338],[77.0497,28.6339],[77.0472,28.6339],[77.0447,28.6339],[77.0426,28.634],[77.0404,28.634],[77.0385,28.634],[77.037,28.6347],[77.0354,28.635],[77.0321,28.6352],[77.0305,28.6352],[77.029,28.6352],[77.0274,28.6352],[77.0257,28.6352],[77.0257,28.6337],[77.0254,28.6322],[77.0246,28.6309],[77.0237,28.6297],[77.0228,28.6284],[77.023,28.6269],[77.0214,28.6267],[77.0198,28.6269],[77.018,28.6274],[77.0165,28.6276],[77.015,28.627],[77.0136,28.6264],[77.012,28.6261],[77.0104,28.6258],[77.0089,28.6254],[77.0074,28.6251],[77.0064,28.6263],[77.0063,28.6278],[77.0061,28.6295],[77.0049,28.6308],[77.0046,28.6323],[77.0045,28.6338],[77.0038,28.6352],[77.003,28.6365],[77.0024,28.6379],[77.0019,28.6394],[77.0016,28.6409],[77.0013,28.6424],[77.0007,28.6438],[77.0001,28.6452],[76.9997,28.6467],[76.9996,28.6482],[76.9992,28.6498],[76.9978,28.6506],[76.9965,28.6516],[76.9953,28.6526],[76.994,28.6536],[76.9925,28.6525],[76.9905,28.6525],[76.9891,28.6515],[76.9876,28.6521],[76.9861,28.6524],[76.985,28.6535],[76.9838,28.6545],[76.9822,28.6547],[76.9806,28.6548],[76.9791,28.655],[76.9784,28.6564],[76.977,28.6572],[76.9754,28.6572],[76.9739,28.6573],[76.9722,28.6577],[76.9706,28.6582],[76.9691,28.6584],[76.9674,28.6589],[76.9659,28.6592],[76.9644,28.6599],[76.9632,28.6609],[76.962,28.6619],[76.9613,28.6633],[76.9607,28.6647],[76.9589,28.6647],[76.9574,28.6651],[76.956,28.6658],[76.9546,28.6667],[76.9536,28.6679],[76.9542,28.6693],[76.9552,28.6705],[76.9557,28.6721],[76.956,28.6739],[76.956,28.6755],[76.9561,28.677],[76.9565,28.6785],[76.9566,28.68],[76.9569,28.6819],[76.9574,28.6835],[76.9578,28.685],[76.9587,28.6863],[76.9595,28.6876],[76.9606,28.6888],[76.9616,28.6901],[76.9627,28.6914],[76.9634,28.6928],[76.9639,28.6943],[76.9654,28.6941],[76.9669,28.694],[76.9686,28.6939],[76.9711,28.6937],[76.9728,28.6935],[76.9744,28.6934],[76.976,28.6932],[76.9776,28.6931],[76.9793,28.693],[76.9812,28.6928],[76.9829,28.6927],[76.9844,28.6926],[76.9859,28.6925],[76.9874,28.6923],[76.9892,28.6922],[76.991,28.692],[76.9927,28.6919],[76.9943,28.6917],[76.9958,28.6916],[76.9973,28.6915],[76.9989,28.6913],[77.0004,28.6912],[77.0022,28.6911],[77.0041,28.6909],[77.0062,28.6908],[77.008,28.6906],[77.0099,28.6905],[77.0121,28.6903],[77.0137,28.6902],[77.0153,28.69],[77.017,28.6899],[77.0191,28.6897],[77.022,28.6895],[77.024,28.6893],[77.0259,28.6892],[77.0277,28.689],[77.0293,28.6889],[77.0309,28.6887],[77.0325,28.6886],[77.0344,28.6884],[77.0367,28.6883],[77.0384,28.6881],[77.0401,28.688],[77.0416,28.6878],[77.0431,28.6877],[77.0446,28.6876],[77.0463,28.6874],[77.0478,28.6873],[77.0494,28.6872],[77.0509,28.687],[77.0525,28.6869],[77.054,28.6867],[77.0555,28.6866],[77.057,28.6865],[77.0585,28.6863],[77.0602,28.6862],[77.0618,28.6861],[77.0622,28.6876],[77.0617,28.6891],[77.0611,28.6905],[77.0616,28.6921],[77.0626,28.6935],[77.0639,28.6944],[77.0662,28.6935],[77.0677,28.694],[77.0683,28.6955],[77.069,28.697],[77.0698,28.6983],[77.0705,28.6997],[77.0714,28.7009],[77.0718,28.7024],[77.0727,28.7037],[77.0743,28.7037],[77.075,28.7052],[77.0748,28.7068],[77.0749,28.7084],[77.075,28.7099],[77.0751,28.7114],[77.076,28.7131],[77.076,28.7147],[77.0764,28.7145]]]}},{"type":"Feature","properties":{"district":"Outer North"},"geometry":{"type":"Polygon","coordinates":[[[76.9618,28.8149],[76.9626,28.8162],[76.9634,28.8176],[76.964,28.819],[76.9649,28.8202],[76.9643,28.8216],[76.964,28.8231],[76.9649,28.8243],[76.9656,28.8257],[76.9657,28.8272],[76.9669,28.8282],[76.9684,28.828],[76.97,28.8277],[76.9715,28.8274],[76.973,28.8268],[76.9742,28.8258],[76.9749,28.8244],[76.9757,28.8231],[76.9771,28.8225],[76.9786,28.8221],[76.98,28.8215],[76.9812,28.8226],[76.9822,28.8238],[76.9833,28.8249],[76.9839,28.8264],[76.9846,28.8278],[76.9853,28.8292],[76.986,28.8306],[76.9865,28.8321],[76.9867,28.8336],[76.9879,28.8347],[76.9891,28.8357],[76.99,28.8369],[76.991,28.8381],[76.9925,28.8386],[76.994,28.8392],[76.9955,28.8394],[76.9969,28.8388],[76.9984,28.8384],[76.9999,28.8385],[77.0015,28.839],[77.003,28.8395],[77.0045,28.84],[77.006,28.8403],[77.0075,28.8407],[77.009,28.8406],[77.0106,28.8406],[77.0121,28.8403],[77.0137,28.8403],[77.0152,28.84],[77.0168,28.84],[77.0184,28.8397],[77.0199,28.8394],[77.0214,28.839],[77.0229,28.8391],[77.0245,28.8386],[77.026,28.8377],[77.0273,28.8369],[77.0288,28.8366],[77.0302,28.836],[77.0317,28.8355],[77.0331,28.8349],[77.0346,28.8343],[77.036,28.8337],[77.0374,28.8331],[77.0389,28.8326],[77.0402,28.8318],[77.0412,28.833],[77.0424,28.834],[77.0426,28.8355],[77.042,28.8369],[77.0425,28.8384],[77.0437,28.8394],[77.045,28.8403],[77.0453,28.8418],[77.0455,28.8434],[77.0452,28.8449],[77.0455,28.8464],[77.0461,28.8478],[77.047,28.8491],[77.0481,28.8503],[77.0489,28.8516],[77.0499,28.8528],[77.0508,28.854],[77.0513,28.8555],[77.0519,28.8569],[77.0519,28.8584],[77.0525,28.8598],[77.0533,28.8611],[77.0542,28.8623],[77.0552,28.8635],[77.0561,28.8647],[77.0569,28.866],[77.0578,28.8672],[77.0587,28.8684],[77.0598,28.8695],[77.0609,28.8706],[77.0624,28.8702],[77.0637,28.8693],[77.0651,28.8687],[77.0666,28.8681],[77.0681,28.8676],[77.0696,28.8675],[77.0709,28.8683],[77.0724,28.8684],[77.0738,28.8676],[77.0752,28.8683],[77.0763,28.8694],[77.0774,28.8705],[77.0786,28.8715],[77.0793,28.8729],[77.0791,28.8744],[77.0785,28.8758],[77.0779,28.8773],[77.0791,28.8783],[77.0803,28.8793],[77.0814,28.8805],[77.0823,28.8818],[77.0825,28.8833],[77.0839,28.8826],[77.0854,28.8821],[77.0869,28.8816],[77.0876,28.8802],[77.0879,28.8787],[77.0882,28.8772],[77.0878,28.8757],[77.089,28.8747],[77.0903,28.8738],[77.0916,28.8729],[77.093,28.8721],[77.0944,28.8714],[77.0959,28.871],[77.0974,28.8708],[77.0989,28.8706],[77.1004,28.8705],[77.1019,28.8702],[77.1034,28.8705],[77.1049,28.8701],[77.1064,28.8698],[77.1079,28.8697],[77.1095,28.87],[77.1105,28.8688],[77.1115,28.8676],[77.1125,28.8664],[77.1139,28.8657],[77.1152,28.8649],[77.116,28.8636],[77.1171,28.8625],[77.1184,28.8616],[77.1196,28.8606],[77.1209,28.8598],[77.1209,28.8583],[77.1224,28.8579],[77.1239,28.8576],[77.1246,28.8591],[77.1256,28.8603],[77.1272,28.8607],[77.1287,28.8613],[77.1302,28.8619],[77.1314,28.8629],[77.133,28.8629],[77.1347,28.8627],[77.1363,28.8625],[77.1378,28.8622],[77.1393,28.8621],[77.1403,28.8609],[77.141,28.8595],[77.1419,28.8583],[77.1421,28.8568],[77.1429,28.8554],[77.1443,28.8547],[77.1454,28.8535],[77.1449,28.852],[77.1442,28.8506],[77.1433,28.8492],[77.1425,28.8479],[77.1418,28.8464],[77.1416,28.8449],[77.1416,28.8434],[77.1421,28.8419],[77.1423,28.8404],[77.1429,28.839],[77.1445,28.8384],[77.146,28.8381],[77.1475,28.8379],[77.149,28.838],[77.1507,28.8379],[77.1522,28.8377],[77.1537,28.8375],[77.1552,28.8372],[77.1567,28.837],[77.1568,28.8385],[77.1577,28.8398],[77.1591,28.8408],[77.1602,28.842],[77.1611,28.8432],[77.162,28.8444],[77.1631,28.8457],[77.1641,28.8469],[77.165,28.8482],[77.1661,28.8493],[77.1677,28.8496],[77.1689,28.8506],[77.1705,28.8504],[77.172,28.85],[77.1723,28.8515],[77.1725,28.853],[77.1728,28.8546],[77.1732,28.8561],[77.1734,28.8576],[77.1748,28.8584],[77.1763,28.858],[77.1778,28.8584],[77.1793,28.8582],[77.1809,28.8578],[77.1824,28.8578],[77.1839,28.8579],[77.1854,28.858],[77.1869,28.8581],[77.1885,28.8583],[77.19,28.8584],[77.1915,28.8583],[77.193,28.8584],[77.1943,28.8592],[77.1958,28.8593],[77.1973,28.8594],[77.1989,28.8593],[77.2005,28.8592],[77.202,28.8591],[77.2036,28.8591],[77.2069,28.8591],[77.2086,28.8595],[77.2105,28.8595],[77.2122,28.8594],[77.2141,28.8594],[77.2157,28.8593],[77.217,28.8585],[77.2166,28.8569],[77.2166,28.8554],[77.2169,28.8539],[77.2165,28.8524],[77.2156,28.8512],[77.2149,28.8498],[77.2137,28.8487],[77.214,28.8472],[77.2143,28.8457],[77.2158,28.8446],[77.2172,28.8439],[77.2186,28.8433],[77.22,28.8425],[77.2214,28.8419],[77.2229,28.8413],[77.2243,28.8407],[77.2259,28.8401],[77.2273,28.8395],[77.2287,28.8387],[77.2289,28.8372],[77.2291,28.8357],[77.2291,28.8342],[77.2289,28.8327],[77.2291,28.8312],[77.2286,28.8297],[77.2284,28.8282],[77.2277,28.8268],[77.2262,28.8264],[77.2249,28.8255],[77.2239,28.8243],[77.2231,28.823],[77.2224,28.8216],[77.2221,28.8201],[77.2208,28.819],[77.2201,28.8175],[77.2189,28.8163],[77.2187,28.8148],[77.2185,28.8126],[77.2187,28.8111],[77.2189,28.8093],[77.2173,28.8087],[77.216,28.8076],[77.2147,28.8088],[77.2132,28.8095],[77.2125,28.808],[77.2123,28.8065],[77.2134,28.8076],[77.2128,28.8061],[77.2119,28.8049],[77.211,28.8036],[77.2107,28.802],[77.2104,28.8003],[77.21,28.7988],[77.2097,28.7971],[77.2094,28.7956],[77.2097,28.7941],[77.2108,28.7929],[77.2117,28.7913],[77.2128,28.7902],[77.2136,28.7889],[77.215,28.7874],[77.2137,28.7865],[77.2121,28.7856],[77.2107,28.7849],[77.2093,28.7843],[77.2072,28.7833],[77.2058,28.7827],[77.2043,28.7826],[77.2029,28.782],[77.2018,28.7808],[77.2003,28.7814],[77.1993,28.7826],[77.1978,28.7838],[77.1965,28.7849],[77.1951,28.7859],[77.1935,28.7861],[77.192,28.7862],[77.1903,28.7862],[77.1886,28.7862],[77.187,28.7863],[77.1852,28.7863],[77.1835,28.786],[77.1817,28.7857],[77.1802,28.7854],[77.18,28.7837],[77.1799,28.782],[77.1798,28.7803],[77.1796,28.7769],[77.1795,28.7751],[77.1794,28.7735],[77.1795,28.7711],[77.1801,28.7697],[77.1813,28.7681],[77.1822,28.7667],[77.1834,28.765],[77.1841,28.7636],[77.185,28.7623],[77.1855,28.7604],[77.186,28.7584],[77.1845,28.7582],[77.183,28.7581],[77.1815,28.758],[77.18,28.7577],[77.1791,28.7565],[77.1799,28.7551],[77.1814,28.7549],[77.1825,28.7538],[77.1828,28.7523],[77.1824,28.7505],[77.1829,28.749],[77.1838,28.7476],[77.184,28.746],[77.1847,28.7446],[77.1861,28.744],[77.1876,28.7441],[77.1891,28.7435],[77.1894,28.742],[77.1895,28.7405],[77.1907,28.7393],[77.1918,28.7381],[77.1916,28.7366],[77.1919,28.7348],[77.1919,28.7333],[77.1914,28.7317],[77.1896,28.7307],[77.1881,28.7311],[77.1865,28.7315],[77.1849,28.7319],[77.1834,28.7323],[77.1819,28.7327],[77.1802,28.7332],[77.1785,28.7338],[77.176,28.7347],[77.1745,28.7353],[77.173,28.7358],[77.1712,28.7365],[77.1693,28.7371],[77.1678,28.7376],[77.1662,28.7378],[77.1646,28.7379],[77.163,28.7379],[77.1615,28.7377],[77.1601,28.7371],[77.1587,28.7365],[77.1572,28.7357],[77.1558,28.735],[77.1545,28.7341],[77.1531,28.7332],[77.1518,28.7324],[77.1499,28.7312],[77.1485,28.7302],[77.1471,28.7293],[77.1458,28.7284],[77.1443,28.7273],[77.1431,28.7262],[77.1421,28.725],[77.1406,28.7253],[77.1398,28.7266],[77.139,28.7279],[77.1382,28.7292],[77.1374,28.7305],[77.1357,28.7332],[77.1348,28.7347],[77.1338,28.7362],[77.133,28.7375],[77.1317,28.7394],[77.1306,28.7411],[77.1293,28.7433],[77.128,28.7441],[77.1265,28.7438],[77.1247,28.7434],[77.1231,28.7432],[77.1216,28.7435],[77.1202,28.7443],[77.1185,28.7446],[77.1167,28.7451],[77.1152,28.745],[77.1135,28.7448],[77.112,28.7452],[77.1102,28.7454],[77.1086,28.7455],[77.1069,28.7456],[77.1049,28.7455],[77.104,28.742],[77.1056,28.7411],[77.1078,28.7399],[77.1091,28.7389],[77.1102,28.7377],[77.1115,28.7368],[77.1131,28.7357],[77.1146,28.7347],[77.1164,28.7334],[77.1184,28.732],[77.1171,28.7306],[77.1159,28.7292],[77.1143,28.7274],[77.1131,28.726],[77.111,28.7236],[77.1096,28.7222],[77.108,28.7203],[77.1066,28.7216],[77.1051,28.7227],[77.1035,28.7237],[77.1022,28.7246],[77.1004,28.7259],[77.0988,28.727],[77.097,28.7283],[77.0956,28.7292],[77.0944,28.7301],[77.0925,28.7313],[77.0899,28.7332],[77.0886,28.7341],[77.0865,28.7355],[77.0849,28.7366],[77.0836,28.7375],[77.0823,28.7384],[77.0808,28.7391],[77.0792,28.7398],[77.0772,28.7406],[77.0756,28.7413],[77.074,28.742],[77.0723,28.7427],[77.0706,28.7435],[77.0692,28.7441],[77.067,28.7453],[77.0646,28.7465],[77.0629,28.7474],[77.0606,28.7486],[77.0583,28.7498],[77.0564,28.7508],[77.0549,28.7517],[77.0542,28.7535],[77.0531,28.7552],[77.0522,28.7567],[77.0506,28.7574],[77.0491,28.7574],[77.0469,28.7574],[77.0447,28.7575],[77.0425,28.7575],[77.041,28.7575],[77.0394,28.7575],[77.0379,28.7576],[77.0366,28.7568],[77.0349,28.757],[77.0349,28.7589],[77.0344,28.7608],[77.0344,28.7624],[77.0344,28.7641],[77.0344,28.7658],[77.0328,28.7659],[77.031,28.7659],[77.0295,28.7659],[77.0278,28.7659],[77.0262,28.7659],[77.0247,28.7657],[77.0231,28.7658],[77.0216,28.7659],[77.02,28.7659],[77.0183,28.766],[77.0168,28.7663],[77.0152,28.7669],[77.0138,28.7676],[77.0124,28.7682],[77.011,28.7688],[77.0089,28.7688],[77.0073,28.7688],[77.0061,28.7698],[77.0056,28.7714],[77.0053,28.7729],[77.0053,28.7744],[77.0056,28.7759],[77.006,28.7775],[77.0066,28.779],[77.0072,28.7804],[77.0064,28.7818],[77.0047,28.7822],[77.0032,28.7826],[77.0018,28.7832],[77.0002,28.7839],[76.9987,28.7844],[76.9972,28.7847],[76.9957,28.7848],[76.994,28.7848],[76.9925,28.7849],[76.9911,28.7857],[76.9898,28.7865],[76.9889,28.7877],[76.9876,28.7887],[76.9863,28.7895],[76.9852,28.7907],[76.984,28.7917],[76.9829,28.7929],[76.9814,28.7931],[76.9799,28.7933],[76.9785,28.7925],[76.977,28.7926],[76.9753,28.7927],[76.9734,28.7927],[76.9718,28.7927],[76.9702,28.7927],[76.9697,28.7943],[76.9697,28.7958],[76.9697,28.7974],[76.9691,28.7988],[76.9691,28.8003],[76.9691,28.8018],[76.9698,28.8032],[76.9698,28.8047],[76.9689,28.8059],[76.9674,28.8059],[76.9657,28.806],[76.9641,28.8064],[76.9622,28.8064],[76.963,28.8077],[76.963,28.8093],[76.9631,28.8108],[76.963,28.8126],[76.963,28.8143],[76.9618,28.8149]],[[77.1676,28.7418],[77.1676,28.7418],[77.1676,28.7418],[77.1676,28.7418]]]}},{"type":"Feature","properties":{"district":"Rohini"},"geometry":{"type":"Polygon","coordinates":[[[76.9582,28.8159],[76.9596,28.8153],[76.9611,28.815],[76.9626,28.8146],[76.9631,28.8131],[76.9631,28.8115],[76.9631,28.81],[76.963,28.8084],[76.962,28.807],[76.9635,28.8064],[76.9653,28.8064],[76.9671,28.8059],[76.9688,28.8059],[76.9698,28.8046],[76.9698,28.8028],[76.9691,28.8014],[76.9691,28.7999],[76.9697,28.7982],[76.9697,28.7964],[76.9697,28.7947],[76.9696,28.7931],[76.9723,28.7927],[76.9739,28.7927],[76.9758,28.7927],[76.9774,28.7926],[76.9789,28.7927],[76.9803,28.7935],[76.9818,28.793],[76.9833,28.7925],[76.9845,28.7913],[76.9857,28.7902],[76.987,28.7891],[76.9884,28.7881],[76.9895,28.7869],[76.9908,28.786],[76.992,28.785],[76.9935,28.7848],[76.9953,28.7848],[76.9968,28.7847],[76.9984,28.7845],[77,28.784],[77.0016,28.7834],[77.0031,28.7827],[77.0046,28.7823],[77.0061,28.7819],[77.0075,28.7813],[77.007,28.7798],[77.0063,28.7784],[77.0058,28.7769],[77.0055,28.7752],[77.0052,28.7737],[77.0054,28.7721],[77.0059,28.7706],[77.0061,28.7691],[77.0078,28.7688],[77.0099,28.7688],[77.0114,28.7687],[77.013,28.768],[77.0146,28.7672],[77.0161,28.7665],[77.0176,28.766],[77.0191,28.7659],[77.0213,28.7659],[77.0228,28.7659],[77.0243,28.7657],[77.0258,28.7655],[77.0276,28.7659],[77.0294,28.7659],[77.0312,28.7659],[77.0328,28.7659],[77.0344,28.7658],[77.0344,28.7643],[77.0344,28.7625],[77.0344,28.7608],[77.0344,28.7593],[77.0349,28.7578],[77.0366,28.7568],[77.0382,28.7576],[77.0401,28.7575],[77.0416,28.7575],[77.0439,28.7575],[77.0455,28.7575],[77.0471,28.7574],[77.0494,28.7574],[77.0511,28.7574],[77.0523,28.7564],[77.0534,28.7548],[77.0544,28.7533],[77.0548,28.7517],[77.0562,28.7509],[77.0576,28.7502],[77.0591,28.7494],[77.0606,28.7486],[77.062,28.7479],[77.0649,28.7464],[77.0668,28.7454],[77.0687,28.7444],[77.0705,28.7435],[77.0719,28.7429],[77.0737,28.7421],[77.0755,28.7414],[77.0775,28.7405],[77.0791,28.7399],[77.081,28.7391],[77.0824,28.7383],[77.0843,28.737],[77.0856,28.7362],[77.0875,28.7348],[77.0888,28.7339],[77.0901,28.733],[77.0917,28.7319],[77.093,28.731],[77.0943,28.7301],[77.0988,28.727],[77.1004,28.7259],[77.1022,28.7246],[77.1048,28.7229],[77.1061,28.722],[77.1073,28.7208],[77.1092,28.7216],[77.1105,28.7231],[77.1122,28.7251],[77.1136,28.7266],[77.1149,28.7281],[77.1162,28.7295],[77.1174,28.7309],[77.1184,28.7321],[77.1171,28.7329],[77.1156,28.734],[77.1141,28.735],[77.1123,28.7363],[77.1105,28.7375],[77.1093,28.7386],[77.1082,28.7397],[77.1066,28.7406],[77.1051,28.7414],[77.104,28.7432],[77.1041,28.7452],[77.1063,28.7456],[77.108,28.7455],[77.1096,28.7454],[77.1111,28.7452],[77.1126,28.7451],[77.1141,28.7448],[77.1156,28.7452],[77.1172,28.745],[77.1187,28.7446],[77.1202,28.7443],[77.1216,28.7435],[77.1231,28.7432],[77.1246,28.7434],[77.1261,28.7437],[77.1276,28.744],[77.1291,28.7435],[77.13,28.7422],[77.1309,28.7408],[77.1317,28.7395],[77.1326,28.7381],[77.1334,28.7368],[77.1346,28.7349],[77.1355,28.7335],[77.1365,28.732],[77.1374,28.7305],[77.1383,28.7291],[77.1391,28.7278],[77.14,28.7264],[77.1408,28.7251],[77.1413,28.7236],[77.1406,28.722],[77.1401,28.7198],[77.1397,28.718],[77.1393,28.7165],[77.139,28.715],[77.1384,28.7133],[77.1377,28.7119],[77.1368,28.7107],[77.1358,28.7095],[77.1347,28.7082],[77.1336,28.707],[77.1324,28.7058],[77.1314,28.7046],[77.1303,28.7034],[77.1287,28.7024],[77.1273,28.7015],[77.1255,28.7005],[77.1239,28.6998],[77.1223,28.6992],[77.1208,28.6987],[77.1193,28.6982],[77.1177,28.6977],[77.1162,28.6974],[77.1144,28.6969],[77.1126,28.6965],[77.111,28.696],[77.1094,28.6955],[77.1079,28.6951],[77.1064,28.6947],[77.1048,28.6947],[77.1033,28.695],[77.1018,28.6954],[77.1004,28.6961],[77.099,28.6971],[77.0974,28.6983],[77.0961,28.6991],[77.0945,28.7],[77.093,28.7007],[77.0916,28.7015],[77.0902,28.7025],[77.0887,28.7034],[77.0872,28.7042],[77.0857,28.7053],[77.0845,28.7064],[77.0832,28.7076],[77.0817,28.7091],[77.0809,28.7104],[77.0808,28.7119],[77.0799,28.7131],[77.0785,28.7137],[77.077,28.7143],[77.076,28.713],[77.0751,28.7116],[77.075,28.71],[77.0749,28.7085],[77.0748,28.7069],[77.0749,28.7054],[77.0751,28.7038],[77.0735,28.7037],[77.0718,28.7037],[77.0717,28.7021],[77.071,28.7005],[77.0702,28.6992],[77.0695,28.6978],[77.0687,28.6964],[77.0681,28.695],[77.0675,28.6934],[77.066,28.6936],[77.0643,28.6948],[77.0631,28.6938],[77.0616,28.6926],[77.0614,28.6911],[77.0615,28.6896],[77.0621,28.6877],[77.0625,28.6861],[77.0606,28.6863],[77.058,28.6866],[77.0556,28.6868],[77.0535,28.6869],[77.0515,28.6871],[77.0484,28.6874],[77.0469,28.6875],[77.0452,28.6877],[77.0433,28.6878],[77.0411,28.688],[77.0384,28.6882],[77.0366,28.6884],[77.0341,28.6886],[77.0317,28.6888],[77.03,28.6889],[77.0276,28.6891],[77.0255,28.6893],[77.0233,28.6895],[77.0209,28.6897],[77.0188,28.6898],[77.0169,28.69],[77.0154,28.6901],[77.0139,28.6903],[77.012,28.6904],[77.0104,28.6906],[77.0077,28.6908],[77.0061,28.6909],[77.0046,28.6911],[77.0028,28.6913],[77.0011,28.6915],[76.9993,28.6916],[76.9965,28.6919],[76.9949,28.692],[76.9932,28.6921],[76.9915,28.6921],[76.9887,28.6923],[76.9865,28.6925],[76.9845,28.6927],[76.9828,28.6928],[76.9809,28.693],[76.9788,28.6931],[76.9767,28.6933],[76.9746,28.6935],[76.9723,28.6937],[76.9705,28.6938],[76.9682,28.694],[76.9656,28.6942],[76.964,28.6944],[76.9649,28.6959],[76.9658,28.6972],[76.9669,28.6983],[76.9681,28.6992],[76.9667,28.7],[76.9652,28.701],[76.9639,28.702],[76.9626,28.703],[76.9613,28.7039],[76.96,28.7047],[76.9587,28.7055],[76.9572,28.7062],[76.9558,28.7072],[76.9544,28.7081],[76.953,28.7089],[76.9516,28.7099],[76.9504,28.7109],[76.949,28.7119],[76.9486,28.7134],[76.9494,28.715],[76.9502,28.7163],[76.9511,28.7177],[76.9521,28.7191],[76.953,28.7203],[76.9542,28.7214],[76.9554,28.7229],[76.9563,28.7242],[76.9571,28.7255],[76.9579,28.7268],[76.9588,28.728],[76.9596,28.7294],[76.9597,28.7309],[76.9599,28.7325],[76.9594,28.734],[76.9586,28.7354],[76.9574,28.7365],[76.9562,28.7376],[76.9566,28.7392],[76.9574,28.7406],[76.9582,28.7419],[76.9582,28.7434],[76.9569,28.7447],[76.9558,28.7459],[76.9545,28.7469],[76.9533,28.7479],[76.952,28.7491],[76.9508,28.7501],[76.9495,28.7509],[76.9482,28.7517],[76.9468,28.7525],[76.9453,28.7533],[76.9448,28.7549],[76.9453,28.7564],[76.9461,28.7578],[76.9472,28.7592],[76.9482,28.7604],[76.9493,28.7616],[76.9503,28.7628],[76.9516,28.7637],[76.9529,28.765],[76.954,28.7661],[76.9552,28.7671],[76.9553,28.7686],[76.9545,28.7703],[76.9536,28.7715],[76.9523,28.7729],[76.9512,28.7742],[76.95,28.7755],[76.9493,28.7769],[76.9495,28.7785],[76.9498,28.7802],[76.9498,28.7818],[76.9501,28.7834],[76.9507,28.785],[76.9513,28.7867],[76.9522,28.788],[76.9532,28.7892],[76.9535,28.7907],[76.9523,28.792],[76.9512,28.7932],[76.9499,28.7944],[76.9484,28.7955],[76.9473,28.7967],[76.9461,28.7977],[76.9446,28.7981],[76.9429,28.7982],[76.9427,28.7999],[76.9434,28.8013],[76.9443,28.8026],[76.9451,28.8039],[76.9458,28.8053],[76.9456,28.8068],[76.9458,28.8084],[76.9459,28.8101],[76.9463,28.8116],[76.9471,28.813],[76.9482,28.8142],[76.9488,28.8156],[76.9501,28.8168],[76.9511,28.8181],[76.9526,28.8177],[76.9542,28.8173],[76.9558,28.8168],[76.9575,28.8163],[76.9582,28.8159]]]}},{"type":"Feature","properties":{"district":"Shahdara"},"geometry":{"type":"Polygon","coordinates":[[[77.3181,28.6898],[77.3191,28.6886],[77.3204,28.6876],[77.3217,28.6886],[77.3229,28.6897],[77.3242,28.6907],[77.3254,28.6917],[77.3267,28.6926],[77.3282,28.6925],[77.3292,28.6912],[77.3302,28.69],[77.3303,28.6885],[77.331,28.6871],[77.3317,28.6857],[77.3321,28.6842],[77.3322,28.6827],[77.3329,28.6813],[77.3318,28.6801],[77.3308,28.6789],[77.3295,28.678],[77.3281,28.6774],[77.3264,28.6769],[77.325,28.6777],[77.3238,28.6767],[77.324,28.6752],[77.3241,28.6737],[77.3235,28.6722],[77.3233,28.6707],[77.3236,28.6692],[77.323,28.6678],[77.3219,28.6667],[77.3215,28.6652],[77.3211,28.6637],[77.3209,28.6621],[77.3206,28.6605],[77.3201,28.659],[77.3201,28.6575],[77.3201,28.6559],[77.3199,28.6541],[77.3185,28.653],[77.316,28.6511],[77.3133,28.6489],[77.312,28.6479],[77.3104,28.6467],[77.3073,28.6443],[77.306,28.6433],[77.3043,28.6419],[77.3028,28.6408],[77.3013,28.6415],[77.3002,28.6427],[77.2992,28.6439],[77.2977,28.6441],[77.296,28.6441],[77.2944,28.6438],[77.2928,28.6437],[77.291,28.6437],[77.2891,28.6436],[77.2876,28.6436],[77.286,28.6435],[77.2841,28.6434],[77.2826,28.6433],[77.2811,28.6434],[77.2795,28.6433],[77.2779,28.6432],[77.2763,28.6431],[77.2746,28.643],[77.273,28.6429],[77.2715,28.6428],[77.2701,28.6435],[77.2686,28.6434],[77.2668,28.6433],[77.2653,28.6431],[77.2663,28.6444],[77.2664,28.6459],[77.266,28.6474],[77.2655,28.6491],[77.2647,28.6504],[77.2635,28.6513],[77.2636,28.6528],[77.2628,28.6541],[77.2619,28.6553],[77.2611,28.6566],[77.2602,28.6578],[77.2593,28.6592],[77.258,28.6601],[77.2566,28.6608],[77.2551,28.6612],[77.2537,28.6622],[77.2522,28.6625],[77.2507,28.6627],[77.2491,28.6635],[77.2507,28.6644],[77.2528,28.6653],[77.2549,28.6661],[77.257,28.667],[77.259,28.6677],[77.2607,28.6683],[77.2622,28.6687],[77.2644,28.6691],[77.2673,28.6696],[77.2688,28.6699],[77.2704,28.6702],[77.2719,28.6704],[77.2739,28.6708],[77.2762,28.6711],[77.2786,28.6716],[77.2804,28.6719],[77.2803,28.6736],[77.28,28.6752],[77.2793,28.6768],[77.2795,28.6783],[77.2797,28.6799],[77.2805,28.6812],[77.2821,28.6809],[77.2836,28.681],[77.2849,28.6818],[77.2841,28.6832],[77.2828,28.6846],[77.2841,28.6856],[77.2856,28.686],[77.2871,28.6861],[77.288,28.6873],[77.2878,28.6889],[77.2893,28.6892],[77.2908,28.6892],[77.2925,28.6895],[77.2944,28.6895],[77.295,28.691],[77.2959,28.6922],[77.2974,28.6917],[77.2995,28.6909],[77.3003,28.6896],[77.3018,28.6895],[77.3033,28.6896],[77.3049,28.6897],[77.3064,28.6898],[77.3079,28.6899],[77.3093,28.6906],[77.3107,28.6914],[77.3122,28.6924],[77.3137,28.6933],[77.315,28.6941],[77.3159,28.6927],[77.3169,28.6915],[77.3179,28.6901],[77.3181,28.6898]]]}},{"type":"Feature","properties":{"district":"South"},"geometry":{"type":"Polygon","coordinates":[[[77.2397,28.5913],[77.2397,28.5898],[77.2405,28.5885],[77.2408,28.587],[77.2408,28.5855],[77.2405,28.584],[77.2397,28.5827],[77.2389,28.5814],[77.2384,28.5799],[77.2384,28.5782],[77.2384,28.5763],[77.2383,28.5748],[77.2376,28.5734],[77.2367,28.572],[77.236,28.5706],[77.2352,28.5693],[77.2346,28.5679],[77.2343,28.5663],[77.234,28.5648],[77.2332,28.5634],[77.2324,28.5621],[77.2316,28.5608],[77.2331,28.5598],[77.2346,28.5594],[77.2362,28.5591],[77.2378,28.5586],[77.2393,28.558],[77.2404,28.5569],[77.2414,28.5557],[77.2426,28.5547],[77.2441,28.5536],[77.2454,28.5527],[77.2469,28.552],[77.2479,28.5506],[77.2486,28.5492],[77.2493,28.5478],[77.25,28.5463],[77.2487,28.5455],[77.2466,28.5447],[77.2465,28.5432],[77.2475,28.542],[77.2489,28.5412],[77.2504,28.5406],[77.2518,28.5399],[77.2532,28.5393],[77.2546,28.5387],[77.256,28.5381],[77.2573,28.5371],[77.2567,28.5357],[77.2558,28.5344],[77.2544,28.5338],[77.2531,28.5328],[77.2517,28.5322],[77.2507,28.5309],[77.2502,28.5294],[77.2519,28.5294],[77.2534,28.529],[77.2549,28.5285],[77.2543,28.5271],[77.255,28.5256],[77.2561,28.5244],[77.2555,28.5229],[77.255,28.5214],[77.2539,28.5186],[77.2533,28.5168],[77.2525,28.5146],[77.2518,28.5128],[77.2536,28.5118],[77.2556,28.5117],[77.2572,28.5115],[77.2588,28.5121],[77.2603,28.512],[77.261,28.5106],[77.2607,28.5091],[77.2605,28.5076],[77.2603,28.5061],[77.2597,28.5047],[77.2608,28.5036],[77.2619,28.5025],[77.2632,28.5015],[77.2642,28.5002],[77.2646,28.4987],[77.2659,28.4978],[77.267,28.4967],[77.2672,28.4952],[77.2676,28.4937],[77.268,28.4922],[77.2691,28.491],[77.27,28.4897],[77.2709,28.4885],[77.272,28.4874],[77.2706,28.4867],[77.2685,28.4862],[77.267,28.4859],[77.2653,28.4857],[77.2638,28.4856],[77.2621,28.4853],[77.2606,28.4849],[77.2589,28.4844],[77.2574,28.4841],[77.2559,28.4835],[77.2545,28.4829],[77.2531,28.4823],[77.2516,28.4818],[77.2499,28.4809],[77.2484,28.4804],[77.247,28.4798],[77.2457,28.4786],[77.244,28.4778],[77.2426,28.4772],[77.2414,28.4762],[77.2401,28.4754],[77.2389,28.4744],[77.2377,28.4731],[77.2365,28.4721],[77.235,28.4713],[77.2338,28.4694],[77.2334,28.4679],[77.2331,28.4662],[77.2331,28.4638],[77.2336,28.4619],[77.2337,28.4604],[77.2329,28.4586],[77.2335,28.4571],[77.2344,28.4557],[77.2358,28.4543],[77.2374,28.4542],[77.239,28.4537],[77.2408,28.4534],[77.2417,28.452],[77.2436,28.4508],[77.2452,28.4505],[77.2466,28.4496],[77.248,28.4475],[77.2497,28.4459],[77.2504,28.4433],[77.2502,28.4416],[77.251,28.4402],[77.2502,28.4376],[77.2499,28.4361],[77.2499,28.4327],[77.25,28.431],[77.2519,28.4311],[77.2526,28.429],[77.2517,28.4275],[77.2502,28.4252],[77.2488,28.4237],[77.2464,28.4227],[77.2449,28.422],[77.2425,28.4213],[77.2407,28.4207],[77.2379,28.4196],[77.236,28.4181],[77.2346,28.4169],[77.2322,28.4155],[77.2309,28.4147],[77.2293,28.4142],[77.2277,28.4138],[77.226,28.4128],[77.2232,28.4125],[77.2215,28.4124],[77.2177,28.4118],[77.2159,28.4105],[77.2142,28.4099],[77.2121,28.4093],[77.2105,28.4091],[77.209,28.4092],[77.2075,28.4094],[77.2059,28.4092],[77.2039,28.4086],[77.2013,28.4083],[77.1989,28.4085],[77.1961,28.4086],[77.1944,28.4084],[77.1928,28.4082],[77.1913,28.4077],[77.19,28.4067],[77.1886,28.4073],[77.1871,28.4076],[77.1857,28.4083],[77.1838,28.4093],[77.1822,28.4092],[77.1805,28.4084],[77.1789,28.4078],[77.1773,28.4068],[77.1757,28.4056],[77.1745,28.4044],[77.1732,28.4054],[77.1716,28.4062],[77.1714,28.4079],[77.171,28.4094],[77.1699,28.4106],[77.169,28.4118],[77.1674,28.413],[77.1659,28.4139],[77.165,28.4153],[77.1651,28.4168],[77.1654,28.4184],[77.1657,28.4202],[77.1658,28.4221],[77.1659,28.4237],[77.166,28.4255],[77.1648,28.4265],[77.164,28.4278],[77.1627,28.4288],[77.1611,28.4296],[77.1595,28.4304],[77.1578,28.431],[77.1563,28.4315],[77.1549,28.4321],[77.1536,28.433],[77.1523,28.4338],[77.1514,28.4351],[77.1501,28.4359],[77.1488,28.4367],[77.1474,28.4374],[77.1458,28.4375],[77.1442,28.4373],[77.1426,28.4371],[77.1411,28.4368],[77.1395,28.4376],[77.138,28.4379],[77.1365,28.4384],[77.1348,28.4386],[77.1334,28.4392],[77.132,28.44],[77.1308,28.4414],[77.1293,28.4424],[77.1279,28.443],[77.126,28.4433],[77.1243,28.4434],[77.1226,28.4436],[77.1224,28.4454],[77.1223,28.4471],[77.1223,28.4488],[77.1222,28.4507],[77.1221,28.4525],[77.122,28.4546],[77.1219,28.4561],[77.1219,28.4578],[77.1211,28.4592],[77.1198,28.4603],[77.1185,28.4614],[77.1173,28.4624],[77.1164,28.4639],[77.1155,28.4652],[77.1146,28.4665],[77.1134,28.4677],[77.1124,28.4689],[77.1114,28.4702],[77.1125,28.4713],[77.1132,28.4728],[77.1135,28.4743],[77.1138,28.4758],[77.114,28.4773],[77.1146,28.4788],[77.1151,28.4803],[77.1164,28.4811],[77.118,28.4807],[77.1194,28.4799],[77.1207,28.4791],[77.1222,28.4789],[77.1238,28.4793],[77.1252,28.4804],[77.1265,28.4814],[77.1275,28.4826],[77.129,28.4836],[77.1304,28.4847],[77.132,28.4858],[77.1335,28.487],[77.1351,28.4878],[77.1366,28.4885],[77.1382,28.4891],[77.14,28.49],[77.1413,28.4908],[77.1428,28.4914],[77.1443,28.4919],[77.1458,28.4925],[77.1473,28.4931],[77.1488,28.4938],[77.1505,28.4945],[77.1519,28.4952],[77.1535,28.4959],[77.1552,28.4967],[77.1566,28.4973],[77.1582,28.498],[77.1598,28.4986],[77.1612,28.4992],[77.1627,28.4998],[77.1645,28.5007],[77.1659,28.5013],[77.1677,28.5021],[77.1691,28.5027],[77.1706,28.5033],[77.1722,28.504],[77.1735,28.5048],[77.1747,28.506],[77.1759,28.5071],[77.1748,28.5082],[77.1736,28.5091],[77.172,28.5097],[77.1712,28.511],[77.172,28.5123],[77.1729,28.5135],[77.1736,28.5152],[77.1738,28.5167],[77.1726,28.5177],[77.173,28.5192],[77.1715,28.5196],[77.1719,28.5212],[77.1711,28.5225],[77.1717,28.5239],[77.1723,28.5254],[77.174,28.5254],[77.1755,28.5252],[77.177,28.5248],[77.1785,28.5253],[77.1784,28.5268],[77.179,28.5286],[77.1796,28.5301],[77.1809,28.5309],[77.1817,28.5322],[77.1826,28.5335],[77.1839,28.5343],[77.1855,28.5347],[77.1864,28.536],[77.1879,28.5365],[77.1892,28.5357],[77.1905,28.5348],[77.1919,28.5339],[77.1932,28.533],[77.1945,28.5321],[77.1957,28.5332],[77.1966,28.5346],[77.1972,28.536],[77.1979,28.5374],[77.1986,28.5388],[77.1993,28.5404],[77.2,28.5421],[77.2008,28.5436],[77.2014,28.545],[77.2022,28.5463],[77.2029,28.5477],[77.2034,28.5492],[77.2039,28.5507],[77.2045,28.5521],[77.2051,28.5535],[77.2058,28.5549],[77.2063,28.5565],[77.2066,28.558],[77.2069,28.5595],[77.2071,28.561],[77.2074,28.5625],[77.2075,28.564],[77.2074,28.5655],[77.2076,28.567],[77.2081,28.5685],[77.2068,28.5693],[77.2078,28.5705],[77.2089,28.5718],[77.2092,28.5734],[77.2095,28.5749],[77.2102,28.5766],[77.2108,28.5781],[77.2114,28.5798],[77.2096,28.5802],[77.208,28.5804],[77.2062,28.5805],[77.2044,28.5806],[77.2022,28.5808],[77.201,28.5819],[77.2005,28.5834],[77.1999,28.5852],[77.1995,28.5868],[77.1993,28.5884],[77.2008,28.5888],[77.2021,28.588],[77.2035,28.5872],[77.2053,28.5871],[77.2068,28.5875],[77.2083,28.5874],[77.2098,28.5878],[77.2114,28.588],[77.2127,28.589],[77.2144,28.5897],[77.2162,28.5899],[77.2181,28.5901],[77.2196,28.5902],[77.2212,28.5904],[77.2227,28.5906],[77.2242,28.5907],[77.2258,28.5909],[77.2273,28.591],[77.2288,28.5913],[77.2303,28.5916],[77.2319,28.5919],[77.2334,28.5921],[77.2349,28.5923],[77.2365,28.5925],[77.238,28.5927],[77.2396,28.5929],[77.2397,28.5913]]]}},{"type":"Feature","properties":{"district":"South-East"},"geometry":{"type":"Polygon","coordinates":[[[77.2314,28.5603],[77.2323,28.5619],[77.234,28.5647],[77.2343,28.5665],[77.2347,28.5681],[77.2357,28.57],[77.2364,28.5715],[77.2373,28.5728],[77.2381,28.5742],[77.2384,28.5759],[77.2384,28.5784],[77.2384,28.5801],[77.2391,28.5816],[77.2399,28.583],[77.2407,28.5845],[77.2408,28.5868],[77.2403,28.5888],[77.2396,28.5902],[77.2397,28.5918],[77.2397,28.5933],[77.2401,28.5948],[77.2404,28.5963],[77.2407,28.5978],[77.2406,28.5993],[77.2405,28.6008],[77.2404,28.6023],[77.2403,28.6041],[77.2401,28.6056],[77.24,28.6074],[77.2416,28.6085],[77.2437,28.6071],[77.2452,28.6068],[77.2469,28.6077],[77.2484,28.6086],[77.2499,28.6085],[77.2514,28.6087],[77.2529,28.609],[77.2546,28.609],[77.2561,28.6092],[77.2578,28.6093],[77.2588,28.608],[77.2594,28.6066],[77.2601,28.6052],[77.261,28.6038],[77.262,28.6026],[77.2628,28.6013],[77.2642,28.602],[77.2655,28.6012],[77.2666,28.5999],[77.2676,28.5987],[77.2686,28.5973],[77.2697,28.5962],[77.2706,28.595],[77.2718,28.5939],[77.2729,28.5928],[77.2742,28.5919],[77.276,28.5909],[77.2774,28.5902],[77.279,28.589],[77.2803,28.588],[77.2819,28.5873],[77.2835,28.5864],[77.2849,28.5854],[77.2863,28.5846],[77.2881,28.5849],[77.2898,28.5851],[77.2915,28.586],[77.2929,28.5868],[77.2946,28.5855],[77.2956,28.5841],[77.2964,28.5828],[77.298,28.5825],[77.2988,28.5811],[77.2992,28.5794],[77.2998,28.578],[77.3,28.5765],[77.2999,28.5749],[77.2993,28.5732],[77.299,28.5716],[77.2996,28.5699],[77.3005,28.5685],[77.3025,28.5665],[77.3039,28.5651],[77.3049,28.5639],[77.3063,28.562],[77.3073,28.5608],[77.3087,28.5589],[77.3109,28.5564],[77.3125,28.5548],[77.3137,28.5538],[77.3149,28.5528],[77.3162,28.5513],[77.3179,28.5492],[77.319,28.5472],[77.3195,28.5456],[77.3198,28.5438],[77.3204,28.5424],[77.3218,28.5417],[77.3237,28.541],[77.3257,28.5398],[77.3273,28.5386],[77.3287,28.5373],[77.3305,28.5354],[77.3312,28.534],[77.3327,28.5328],[77.3337,28.5309],[77.3342,28.5294],[77.3344,28.5275],[77.3355,28.5257],[77.3364,28.5245],[77.3373,28.5232],[77.3397,28.5225],[77.3416,28.5219],[77.3439,28.5216],[77.3456,28.5212],[77.3475,28.5204],[77.3473,28.5187],[77.346,28.5172],[77.3459,28.5156],[77.3454,28.5133],[77.344,28.512],[77.3424,28.5107],[77.3413,28.5093],[77.3401,28.5081],[77.3388,28.5064],[77.3372,28.5051],[77.3361,28.5038],[77.3352,28.5024],[77.3344,28.5011],[77.3336,28.4998],[77.3323,28.4981],[77.3311,28.4966],[77.3297,28.4953],[77.3289,28.4936],[77.3281,28.4922],[77.3269,28.4912],[77.3255,28.4897],[77.3231,28.4886],[77.3216,28.488],[77.3201,28.488],[77.3187,28.4874],[77.3164,28.4865],[77.3164,28.4849],[77.3149,28.484],[77.3123,28.485],[77.311,28.4863],[77.3097,28.4874],[77.3083,28.488],[77.3068,28.4888],[77.3051,28.4893],[77.3031,28.4895],[77.3014,28.4897],[77.3001,28.4908],[77.2999,28.4935],[77.2985,28.4943],[77.297,28.4944],[77.2955,28.4947],[77.294,28.4945],[77.2938,28.496],[77.2923,28.4961],[77.2899,28.4965],[77.288,28.4961],[77.2862,28.4959],[77.285,28.4948],[77.2832,28.4944],[77.2817,28.4941],[77.2802,28.494],[77.2787,28.4937],[77.2771,28.4933],[77.2757,28.4927],[77.2743,28.4919],[77.2727,28.491],[77.2724,28.489],[77.2694,28.4906],[77.2683,28.4919],[77.2677,28.4937],[77.2672,28.4953],[77.267,28.4968],[77.2654,28.4978],[77.2647,28.4992],[77.2638,28.5011],[77.2624,28.5021],[77.2611,28.5031],[77.2599,28.5044],[77.2608,28.5103],[77.2609,28.5118],[77.2593,28.5122],[77.2578,28.5117],[77.256,28.5116],[77.2543,28.5118],[77.2525,28.5119],[77.2521,28.5137],[77.2528,28.5157],[77.2541,28.519],[77.2547,28.5206],[77.2557,28.5233],[77.2564,28.5252],[77.2548,28.5256],[77.2543,28.5272],[77.2544,28.5287],[77.2527,28.5292],[77.251,28.5295],[77.2509,28.5312],[77.2521,28.5324],[77.2539,28.5331],[77.2551,28.5341],[77.2566,28.5347],[77.2578,28.5359],[77.2571,28.5374],[77.2554,28.5384],[77.2539,28.539],[77.2525,28.5396],[77.2508,28.5404],[77.2491,28.5411],[77.2477,28.5419],[77.2465,28.5432],[77.2465,28.5447],[77.2482,28.5454],[77.2497,28.5459],[77.2494,28.5476],[77.2486,28.5492],[77.2477,28.551],[77.2466,28.5521],[77.2452,28.5528],[77.2436,28.554],[77.2423,28.5549],[77.2411,28.556],[77.2401,28.5572],[77.2388,28.5583],[77.2372,28.5587],[77.2357,28.5592],[77.2342,28.5595],[77.2327,28.5599],[77.2314,28.5603]],[[77.3331,28.5135],[77.3331,28.5135],[77.3331,28.5135],[77.3331,28.5135],[77.3331,28.5135]]]}},{"type":"Feature","properties":{"district":"South-West"},"geometry":{"type":"Polygon","coordinates":[[[77.1526,28.6155],[77.1518,28.6142],[77.1518,28.6127],[77.1505,28.6118],[77.1495,28.6106],[77.1482,28.6095],[77.147,28.6085],[77.1477,28.6071],[77.1492,28.6069],[77.1507,28.6062],[77.1522,28.606],[77.1539,28.6058],[77.1556,28.6055],[77.1572,28.6044],[77.1589,28.6031],[77.1604,28.6027],[77.1618,28.6035],[77.1633,28.6039],[77.1648,28.6044],[77.1663,28.6048],[77.1678,28.6047],[77.1695,28.6044],[77.1697,28.6029],[77.1708,28.6018],[77.1703,28.6003],[77.1695,28.599],[77.1687,28.5976],[77.1674,28.5986],[77.1667,28.5972],[77.1677,28.596],[77.169,28.595],[77.1701,28.5939],[77.171,28.5927],[77.1719,28.5914],[77.1728,28.59],[77.1737,28.5888],[77.1746,28.5876],[77.1759,28.5866],[77.1774,28.586],[77.1788,28.5854],[77.1802,28.5848],[77.1817,28.5842],[77.1832,28.5836],[77.1848,28.5829],[77.1865,28.5823],[77.188,28.5818],[77.1897,28.5816],[77.1914,28.5815],[77.1932,28.5814],[77.1949,28.5813],[77.1966,28.5811],[77.1981,28.581],[77.2003,28.5808],[77.2023,28.5807],[77.204,28.5806],[77.2058,28.5804],[77.2073,28.5803],[77.2088,28.5802],[77.2107,28.5801],[77.2109,28.5786],[77.2103,28.5769],[77.2097,28.5755],[77.2093,28.5739],[77.209,28.5724],[77.2084,28.571],[77.2071,28.57],[77.2081,28.5688],[77.2077,28.5672],[77.2074,28.5655],[77.2075,28.5639],[77.2073,28.5624],[77.2071,28.5607],[77.2068,28.5592],[77.2066,28.5576],[77.2062,28.5559],[77.2056,28.5545],[77.2048,28.553],[77.2042,28.5516],[77.2037,28.5501],[77.2032,28.5486],[77.2026,28.5471],[77.2019,28.5457],[77.2011,28.5444],[77.2005,28.543],[77.1997,28.5415],[77.1991,28.54],[77.1985,28.5386],[77.1978,28.5371],[77.197,28.5357],[77.1964,28.5341],[77.1954,28.5328],[77.1936,28.5328],[77.1923,28.5337],[77.1909,28.5345],[77.1896,28.5354],[77.1883,28.5363],[77.1867,28.5366],[77.186,28.5352],[77.1848,28.5343],[77.1833,28.5341],[77.1821,28.533],[77.1815,28.5312],[77.1801,28.5304],[77.1791,28.5289],[77.1784,28.5268],[77.1785,28.5253],[77.1768,28.5248],[77.1752,28.5253],[77.1736,28.5255],[77.1721,28.5248],[77.1714,28.5234],[77.1713,28.5219],[77.1716,28.5203],[77.1733,28.5198],[77.1724,28.5184],[77.1733,28.5172],[77.1735,28.5157],[77.1735,28.5142],[77.1723,28.5131],[77.1714,28.5119],[77.1709,28.5104],[77.1727,28.5094],[77.1744,28.5084],[77.1759,28.5081],[77.1753,28.5066],[77.1739,28.5053],[77.1725,28.5041],[77.1711,28.5035],[77.1696,28.5029],[77.1671,28.5018],[77.1656,28.5012],[77.1641,28.5005],[77.1627,28.4998],[77.1599,28.4987],[77.1583,28.4981],[77.1569,28.4974],[77.1549,28.4965],[77.153,28.4957],[77.1516,28.4951],[77.15,28.4943],[77.1486,28.4937],[77.1472,28.4931],[77.1457,28.4924],[77.1442,28.4919],[77.1424,28.4913],[77.1409,28.4906],[77.1394,28.4897],[77.1372,28.4887],[77.1355,28.488],[77.1335,28.4869],[77.1322,28.4859],[77.1305,28.4847],[77.1291,28.4837],[77.1275,28.4826],[77.1266,28.4814],[77.1253,28.4805],[77.1241,28.4795],[77.1227,28.4789],[77.1211,28.479],[77.1196,28.4797],[77.1182,28.4806],[77.1167,28.4811],[77.1152,28.4813],[77.1154,28.4828],[77.1165,28.4843],[77.1175,28.4856],[77.1181,28.4872],[77.1188,28.4886],[77.1192,28.4903],[77.1196,28.4918],[77.12,28.4934],[77.1206,28.4948],[77.1195,28.496],[77.118,28.4963],[77.1165,28.4967],[77.115,28.4973],[77.1135,28.498],[77.112,28.4986],[77.1102,28.4993],[77.1086,28.5],[77.1071,28.5006],[77.1053,28.5014],[77.1038,28.5024],[77.1022,28.5031],[77.1007,28.5036],[77.0991,28.5042],[77.0977,28.5048],[77.0964,28.5064],[77.0963,28.5079],[77.0973,28.5092],[77.0982,28.5107],[77.0973,28.5121],[77.0956,28.513],[77.0943,28.5138],[77.0928,28.5143],[77.0911,28.5147],[77.0896,28.5151],[77.0879,28.5155],[77.0862,28.5161],[77.0844,28.5166],[77.0831,28.5158],[77.0813,28.5167],[77.0798,28.5175],[77.0783,28.5177],[77.0766,28.5178],[77.075,28.5176],[77.0735,28.5177],[77.0719,28.5175],[77.0709,28.5156],[77.0703,28.5142],[77.0691,28.5132],[77.0674,28.5122],[77.0659,28.5124],[77.0641,28.5127],[77.0623,28.5124],[77.0608,28.5123],[77.0589,28.5126],[77.0571,28.5131],[77.0549,28.514],[77.0532,28.5142],[77.0513,28.5149],[77.0488,28.5157],[77.0474,28.5164],[77.0468,28.5183],[77.0475,28.5197],[77.0467,28.5212],[77.0452,28.522],[77.0438,28.5228],[77.0433,28.5244],[77.0421,28.5254],[77.0408,28.5264],[77.0392,28.5273],[77.0378,28.528],[77.0365,28.5288],[77.035,28.5296],[77.0335,28.5304],[77.032,28.5312],[77.0304,28.5316],[77.0287,28.5319],[77.0271,28.5322],[77.0253,28.5326],[77.0239,28.5332],[77.0227,28.5342],[77.0215,28.5352],[77.0199,28.5362],[77.0185,28.537],[77.0169,28.5376],[77.0156,28.5387],[77.0141,28.5401],[77.0126,28.5402],[77.0108,28.5402],[77.0091,28.5401],[77.0085,28.5415],[77.0092,28.5429],[77.0106,28.5436],[77.0122,28.5435],[77.0139,28.5431],[77.0155,28.5427],[77.0175,28.5423],[77.019,28.5419],[77.021,28.5415],[77.0227,28.5411],[77.0245,28.5406],[77.0263,28.5402],[77.0278,28.5398],[77.0294,28.5394],[77.031,28.539],[77.0325,28.5387],[77.0341,28.5383],[77.0359,28.5382],[77.0375,28.5379],[77.0393,28.5375],[77.0408,28.5369],[77.0422,28.5363],[77.0437,28.5356],[77.0453,28.5353],[77.0471,28.5348],[77.049,28.5341],[77.0504,28.5355],[77.0517,28.5369],[77.053,28.5384],[77.0541,28.5398],[77.0553,28.5411],[77.0563,28.5423],[77.0577,28.5439],[77.0591,28.5455],[77.0603,28.5465],[77.0617,28.5471],[77.0632,28.5467],[77.0644,28.5456],[77.0654,28.5444],[77.067,28.5441],[77.0692,28.5436],[77.0711,28.5432],[77.0727,28.5429],[77.0742,28.5425],[77.0757,28.5422],[77.0774,28.5419],[77.0796,28.5414],[77.0817,28.5408],[77.0832,28.5403],[77.0848,28.5398],[77.0864,28.5393],[77.088,28.539],[77.0898,28.5387],[77.0916,28.5384],[77.0932,28.5381],[77.095,28.5379],[77.0967,28.5388],[77.0985,28.5384],[77.1006,28.538],[77.1024,28.5376],[77.1039,28.5373],[77.1054,28.537],[77.1069,28.5367],[77.1082,28.5358],[77.1097,28.5353],[77.1112,28.5358],[77.1127,28.5364],[77.1141,28.5372],[77.1157,28.5382],[77.1165,28.5397],[77.1159,28.5412],[77.1161,28.5428],[77.1169,28.5441],[77.1189,28.5445],[77.1208,28.5453],[77.1224,28.5459],[77.1237,28.5468],[77.125,28.5481],[77.1263,28.549],[77.1276,28.55],[77.129,28.5511],[77.1303,28.5521],[77.1312,28.5533],[77.1318,28.5547],[77.1323,28.5563],[77.1328,28.5578],[77.1288,28.5596],[77.1271,28.5599],[77.1247,28.5605],[77.1231,28.5609],[77.1216,28.5612],[77.1229,28.5631],[77.1226,28.5647],[77.1223,28.5662],[77.1219,28.5679],[77.1215,28.5701],[77.1212,28.5717],[77.121,28.5732],[77.1194,28.574],[77.1178,28.5744],[77.1161,28.5749],[77.1146,28.5753],[77.1126,28.5758],[77.1111,28.5762],[77.1092,28.5767],[77.1076,28.5772],[77.106,28.5776],[77.1041,28.5776],[77.1026,28.578],[77.101,28.5771],[77.1022,28.5755],[77.102,28.5739],[77.1003,28.5732],[77.0984,28.5728],[77.0967,28.5729],[77.0951,28.5729],[77.0935,28.5726],[77.0913,28.5722],[77.0896,28.5725],[77.0879,28.5727],[77.0864,28.5727],[77.0841,28.5738],[77.0822,28.5731],[77.0805,28.5711],[77.079,28.5693],[77.0774,28.5693],[77.0755,28.5698],[77.0752,28.5713],[77.076,28.5727],[77.0764,28.5746],[77.0767,28.5762],[77.0771,28.5779],[77.0776,28.5796],[77.0763,28.5806],[77.0757,28.5827],[77.0741,28.5838],[77.0725,28.5838],[77.0714,28.5849],[77.0716,28.5869],[77.0717,28.5885],[77.0718,28.59],[77.0733,28.5902],[77.0737,28.5917],[77.075,28.5927],[77.0764,28.5936],[77.0779,28.5932],[77.0796,28.5928],[77.0811,28.5924],[77.0809,28.5943],[77.0808,28.5958],[77.0813,28.5974],[77.0818,28.5991],[77.0821,28.6007],[77.0825,28.6025],[77.083,28.604],[77.0818,28.6052],[77.0814,28.6069],[77.0831,28.6078],[77.0849,28.6077],[77.0863,28.6071],[77.0872,28.6085],[77.0886,28.6093],[77.0887,28.6111],[77.0901,28.6117],[77.0916,28.6111],[77.0931,28.6104],[77.0945,28.6098],[77.0961,28.609],[77.0977,28.6086],[77.0993,28.6091],[77.1009,28.6091],[77.1023,28.6085],[77.1038,28.6078],[77.1054,28.6072],[77.1069,28.6066],[77.1083,28.606],[77.1098,28.6053],[77.1112,28.6067],[77.1122,28.6079],[77.1133,28.6092],[77.1143,28.6106],[77.116,28.6098],[77.1176,28.6091],[77.1195,28.6084],[77.121,28.6078],[77.1224,28.6072],[77.1241,28.6066],[77.1255,28.6059],[77.1271,28.6053],[77.1282,28.6064],[77.1297,28.6068],[77.1311,28.6074],[77.1328,28.6078],[77.1343,28.6079],[77.1359,28.6079],[77.1375,28.6076],[77.139,28.6071],[77.1406,28.6073],[77.1414,28.6086],[77.1421,28.61],[77.1428,28.6114],[77.1437,28.6129],[77.1446,28.6142],[77.1452,28.6156],[77.1468,28.6169],[77.1487,28.6168],[77.1507,28.6168],[77.152,28.6159],[77.1526,28.6155]]]}},{"type":"Feature","properties":{"district":"West"},"geometry":{"type":"Polygon","coordinates":[[[77.1581,28.6712],[77.1596,28.6709],[77.1612,28.6704],[77.1635,28.6694],[77.1653,28.6686],[77.1668,28.6679],[77.1689,28.667],[77.1674,28.6657],[77.1654,28.6649],[77.1639,28.6643],[77.1621,28.6636],[77.1601,28.6627],[77.1583,28.6621],[77.1567,28.6611],[77.1555,28.6599],[77.1543,28.6581],[77.1534,28.6567],[77.1523,28.6551],[77.1507,28.6533],[77.1492,28.6515],[77.1483,28.6502],[77.1472,28.6485],[77.1462,28.6471],[77.1476,28.6464],[77.1493,28.6464],[77.1503,28.6476],[77.1513,28.6488],[77.1527,28.6496],[77.1544,28.649],[77.1559,28.6477],[77.1573,28.6466],[77.1587,28.6455],[77.16,28.6445],[77.1617,28.6441],[77.1632,28.6437],[77.1649,28.6433],[77.1665,28.6443],[77.168,28.6439],[77.1696,28.6432],[77.1711,28.6423],[77.1728,28.6413],[77.1743,28.6415],[77.1743,28.64],[77.1747,28.6385],[77.1746,28.6368],[77.1744,28.6349],[77.1742,28.6333],[77.1746,28.6318],[77.1755,28.6303],[77.1757,28.6288],[77.1764,28.6274],[77.1773,28.6262],[77.1786,28.6252],[77.18,28.6242],[77.1793,28.6228],[77.1781,28.6216],[77.1768,28.6201],[77.1763,28.6184],[77.176,28.6167],[77.1752,28.6154],[77.1747,28.6139],[77.1748,28.6124],[77.174,28.6109],[77.173,28.6097],[77.1718,28.6084],[77.1711,28.607],[77.1704,28.6053],[77.1685,28.6045],[77.1664,28.6048],[77.1638,28.6042],[77.1621,28.6034],[77.1604,28.6027],[77.1588,28.6032],[77.1572,28.6044],[77.1558,28.6055],[77.1539,28.6058],[77.1519,28.6061],[77.1504,28.6063],[77.149,28.6069],[77.1475,28.6072],[77.1471,28.6087],[77.1483,28.6096],[77.1495,28.6106],[77.1505,28.6118],[77.1518,28.6126],[77.1518,28.6141],[77.1524,28.6155],[77.1515,28.6167],[77.1487,28.6168],[77.1464,28.6169],[77.1452,28.6158],[77.1447,28.6143],[77.1438,28.6131],[77.1426,28.6111],[77.1418,28.6095],[77.1411,28.6081],[77.1399,28.6071],[77.1384,28.6074],[77.1367,28.6078],[77.1352,28.6079],[77.1336,28.6079],[77.132,28.6076],[77.1304,28.6071],[77.1289,28.6065],[77.1277,28.6055],[77.1261,28.6057],[77.1247,28.6063],[77.1232,28.6069],[77.1216,28.6075],[77.1201,28.6081],[77.1182,28.6089],[77.1165,28.6096],[77.115,28.6102],[77.1135,28.6097],[77.1124,28.6084],[77.1114,28.6072],[77.1103,28.6059],[77.1086,28.6059],[77.1069,28.6066],[77.1054,28.6072],[77.104,28.6078],[77.1025,28.6084],[77.1009,28.609],[77.0993,28.6091],[77.0976,28.6086],[77.0961,28.609],[77.0947,28.6097],[77.0933,28.6103],[77.0917,28.611],[77.0901,28.6117],[77.0887,28.6123],[77.0873,28.6129],[77.0859,28.6135],[77.0843,28.6142],[77.0828,28.6149],[77.0814,28.6155],[77.0799,28.6162],[77.0785,28.6169],[77.0771,28.6175],[77.0755,28.6183],[77.074,28.619],[77.0725,28.6197],[77.071,28.6205],[77.0696,28.6212],[77.0684,28.6223],[77.0674,28.6244],[77.0666,28.6257],[77.0659,28.6271],[77.0652,28.6285],[77.0646,28.6299],[77.0638,28.6315],[77.0631,28.633],[77.0623,28.6345],[77.0613,28.6364],[77.0606,28.6378],[77.0608,28.6393],[77.0621,28.6402],[77.0634,28.6412],[77.0646,28.6422],[77.0659,28.6433],[77.0673,28.6445],[77.0687,28.6458],[77.0705,28.6473],[77.0722,28.6488],[77.0735,28.6499],[77.0746,28.651],[77.0757,28.6522],[77.0769,28.6533],[77.0783,28.6541],[77.0798,28.6547],[77.0814,28.6552],[77.0831,28.6556],[77.0847,28.6552],[77.0863,28.6548],[77.0878,28.6543],[77.0893,28.6539],[77.0908,28.6541],[77.0923,28.6546],[77.0936,28.6554],[77.0948,28.6565],[77.0958,28.6577],[77.0972,28.6587],[77.0985,28.6596],[77.0999,28.6602],[77.1015,28.6605],[77.1031,28.6606],[77.1048,28.6605],[77.1067,28.6603],[77.1083,28.6602],[77.1089,28.6616],[77.11,28.6628],[77.111,28.6642],[77.1118,28.6655],[77.1121,28.6673],[77.1124,28.6688],[77.1127,28.6706],[77.113,28.6724],[77.1133,28.674],[77.1136,28.6759],[77.1129,28.6773],[77.1109,28.6776],[77.1106,28.6791],[77.1105,28.6806],[77.109,28.6808],[77.1081,28.6821],[77.1065,28.6823],[77.1048,28.6824],[77.1025,28.6826],[77.1025,28.6843],[77.1028,28.6858],[77.1028,28.6875],[77.1042,28.6881],[77.1063,28.688],[77.1088,28.688],[77.1105,28.688],[77.112,28.6878],[77.1137,28.6876],[77.1153,28.6874],[77.1171,28.6871],[77.1186,28.6869],[77.1203,28.6867],[77.1211,28.6854],[77.1212,28.6837],[77.1215,28.6822],[77.123,28.6821],[77.1245,28.6819],[77.126,28.6815],[77.1276,28.6812],[77.1288,28.6801],[77.1303,28.6799],[77.1318,28.6796],[77.1333,28.679],[77.1349,28.6789],[77.1366,28.6792],[77.1381,28.6794],[77.14,28.6791],[77.1415,28.6788],[77.1433,28.6784],[77.1454,28.6777],[77.1476,28.6769],[77.1493,28.6762],[77.1512,28.6754],[77.153,28.6747],[77.1544,28.6741],[77.1559,28.6735],[77.1579,28.6726],[77.1581,28.6712]]]}}]}